{"type":"FeatureCollection","features":[{"type":"Feature","id":1,"geometry":{"type":"LineString","coordinates":[[-89.370569246999935,29.991971966000051],[-89.370548176999989,29.991993196000067],[-89.370521026999938,29.992011262000062],[-89.370501966999939,29.992035328000043],[-89.370519685999966,29.992012892000048],[-89.370491516999948,29.992030623000062]]},"properties":{"OBJECTID":1,"oyster_count":1076,"notes":null,"dredge_width":38,"dredge_area":164,"dredge_length":52,"oyster_calc":4731,"usability":"Use","sample_date":1765568220000,"permission_group":"johnyjurisich_CVCarbon,JJurisich_CVCarbon","verification":"No Oyster Data","lease_number":"36166","created_user":"JReynolds_cvcarbon","created_date":1765567822000,"last_edited_user":"jjordan_CVCarbon","last_edited_date":1779218629926,"GlobalID":"{96A80374-6315-4535-B943-540E104E2E09}","Shape_Length":0.00015509562042990171}},{"type":"Feature","id":2,"geometry":{"type":"LineString","coordinates":[[-89.360918802999947,29.995072045000029],[-89.360898149999969,29.995055596000043],[-89.360870507999948,29.995026864000067],[-89.360853891999966,29.994993412000042],[-89.360837983999943,29.994962086000044],[-89.360836053999947,29.994949872000063],[-89.360836809999967,29.994939206000026]]},"properties":{"OBJECTID":2,"oyster_count":1072,"notes":null,"dredge_width":38,"dredge_area":152,"dredge_length":48,"oyster_calc":5086,"usability":"Use","sample_date":1765570965000,"permission_group":"johnyjurisich_CVCarbon,JJurisich_CVCarbon","verification":"No","lease_number":"30260","created_user":"ALupis_cvcarbon","created_date":1765570970816,"last_edited_user":"jjordan_CVCarbon","last_edited_date":1779218629926,"GlobalID":"{B0A75114-EDF9-4269-9D2D-1606DE73B75F}","Shape_Length":0.00016181633892197768}},{"type":"Feature","id":3,"geometry":{"type":"LineString","coordinates":[[-89.357947854999964,29.99395080000005],[-89.357987388999959,29.993958993000035],[-89.358027571999969,29.99397502100004],[-89.35806084099994,29.993993470000078]]},"properties":{"OBJECTID":3,"oyster_count":970,"notes":null,"dredge_width":38,"dredge_area":82,"dredge_length":26,"oyster_calc":8531,"usability":"Use","sample_date":1779308130769,"permission_group":"johnyjurisich_CVCarbon, johnyjurisich_CVCarbon,JJurisich_CVCarbon","verification":"No","lease_number":"30260","created_user":"ALupis_cvcarbon","created_date":1779308133644,"last_edited_user":"jjordan_CVCarbon","last_edited_date":1784206675907,"GlobalID":"{2113F693-26B1-4E7F-8847-20B84421B1ED}","Shape_Length":0.00012167765661794583}}]}