{"type":"FeatureCollection","crs":{"type":"name","properties":{"name":"EPSG:3857"}},"features":[{"type":"Feature","id":1,"geometry":{"type":"Polygon","coordinates":[[[-9948082.7755999994,3501110.4562999979],[-9948054.8662,3501135.6066000015],[-9948136.2543000001,3501342.1903000027],[-9948192.5797000006,3501511.9733999968],[-9948463.7355000004,3501988.7911999971],[-9947951.5709000006,3502180.2326000035],[-9948168.7408000007,3502608.4697000012],[-9948787.4890000001,3502554.5364999995],[-9949169.9293000009,3502689.6548999995],[-9948867.3989000004,3501527.0464000031],[-9948082.7755999994,3501110.4562999979]]]},"properties":{"OBJECTID":1,"lease_number":"36166","entity_name":"GULF OYSTERS I, INC.","permission_group":"johnyjurisich_CVCarbon,JJurisich_CVCarbon","polling_quality":"Need More","location":"BAY BOUDREAU","analysis_state":"Accepted","methodology":"Closed Spline","verification_status":"Done","acres":186,"datesigned":null,"latitude":29.988109774439309,"longitude":-89.369488844241587,"date_of_last_poll":null,"state":"LA","notes":null,"has_current_documentation":"Yes","epa_facility_name":null,"ghgrp":"601873","county":"St. Bernard","irs_registration":null,"city":"SAINT BERNARD","zip":"70085","harvest_area":"LA Area 3","renewal_number":"15","flag":null,"GlobalID":"{54BF5C3B-980A-4489-879F-3050EAFAA9D7}","owner":"johnyjurisich_CVCarbon","last_analysis_date":1775088002757,"CreationDate":1766102141875,"Creator":"jjordan_CVCarbon","EditDate":1780354632699,"Editor":"jjordan_CVCarbon","sampling_status":"Sampled","irs_property_number":null,"closure_status":"Open","use_point_samples":null,"Original_Area":750942.90164744272,"Shape_Length":5130.3323299639142,"Shape_Area":1004395.7831895404}}]}