{"type":"FeatureCollection","crs":{"type":"name","properties":{"name":"EPSG:3857"}},"features":[{"type":"Feature","id":1,"geometry":{"type":"Polygon","coordinates":[[[-9976347.3006999996,3423551.4892000034],[-9976063.0999999996,3423715.108099997],[-9976288.0901999995,3424085.9557999969],[-9976288.6703999992,3424086.9616999999],[-9976288.6728000008,3424086.9623999968],[-9976288.6743999999,3424086.9686999992],[-9976374.9224999994,3424236.4765999988],[-9976474.3366999999,3424393.641900003],[-9976341.3850999996,3424477.2528999969],[-9976603.6009999998,3424763.4892000034],[-9976741.3158999998,3424840.0693999976],[-9976709.4918000009,3424962.1256999969],[-9977172.6027000006,3424803.3030999973],[-9977265.0162000004,3424773.9636000022],[-9977187.4239000008,3424435.3693000004],[-9977175.4147999994,3424137.5931999981],[-9977192.4722000007,3424008.3906999975],[-9976947.5815999992,3424135.1423999965],[-9976561.7451000009,3423801.8297000006],[-9976347.3006999996,3423551.4892000034]]]},"properties":{"OBJECTID":1,"lease_number":"32024","entity_name":"GULF OYSTERS II, INC.","permission_group":"johnyjurisich_CVCarbon,JJurisich_CVCarbon","polling_quality":"Need More","location":"ADAMS BAY","analysis_state":"Accepted","methodology":"Closed Spline","verification_status":"Done","acres":152,"datesigned":1684108800000,"latitude":29.381522068091325,"longitude":-89.622304688487006,"date_of_last_poll":null,"state":"LA","notes":null,"has_current_documentation":"Yes","epa_facility_name":"3202421","ghgrp":"588877","county":"Plaquemines","irs_registration":"PC00C23001D2","city":"BURAS","zip":"70041","harvest_area":"LA Area 10","renewal_number":"21","flag":null,"GlobalID":"{C8ED7577-F876-480C-9EC9-992EE93363AB}","owner":"johnyjurisich_CVCarbon","last_analysis_date":1774906579530,"CreationDate":1766102141875,"Creator":"jjordan_CVCarbon","EditDate":1780354632699,"Editor":"jjordan_CVCarbon","sampling_status":"Sampled","irs_property_number":"12","closure_status":"Open","use_point_samples":null,"Original_Area":613002.36341075914,"Shape_Length":4427.9004626677533,"Shape_Area":810160.73950094159}}]}