{"type":"FeatureCollection","name":"bay_boudreau_boundary","features":[{"type":"Feature","properties":{"lease_number":"30260","location":"Bay Boudreau","county":"St. Bernard","state":"LA","acres":106.0,"lease":"30260"},"geometry":{"type":"MultiPolygon","coordinates":[[[[-89.371458,29.992396],[-89.371964,29.995449],[-89.357844,29.995934],[-89.356841,29.993499],[-89.365724,29.992829],[-89.365828,29.992821],[-89.365828,29.992821],[-89.371458,29.992396]]]]}},{"type":"Feature","properties":{"lease_number":"36166","location":"Bay Boudreau","county":"St. Bernard","state":"LA","acres":186,"lease":"36166"},"geometry":{"type":"Polygon","coordinates":[[[-89.365148,29.981021],[-89.364897,29.981216],[-89.365628,29.982824],[-89.366134,29.984145],[-89.36857,29.987855],[-89.363969,29.989344],[-89.36592,29.992676],[-89.371479,29.992257],[-89.374914,29.993308],[-89.372196,29.984262],[-89.365148,29.981021]]]}}]}