{"type":"FeatureCollection","name":"bay_boudreau_dredges","features":[{"type":"Feature","properties":{"tow":1,"lease":"36166","d":"2025-12-12","photo":0,"kind":"tow"},"geometry":{"type":"Point","coordinates":[-89.370502,29.992035]}},{"type":"Feature","properties":{"tow":1,"lease":"36166","d":"2025-12-12","photo":0,"kind":"track"},"geometry":{"type":"LineString","coordinates":[[-89.370569,29.991972],[-89.370548,29.991993],[-89.370521,29.992011],[-89.370502,29.992035],[-89.37052,29.992013],[-89.370492,29.992031]]}},{"type":"Feature","properties":{"tow":2,"lease":"30260","d":"2025-12-12","photo":1,"kind":"tow"},"geometry":{"type":"Point","coordinates":[-89.360854,29.994993]}},{"type":"Feature","properties":{"tow":2,"lease":"30260","d":"2025-12-12","photo":1,"kind":"track"},"geometry":{"type":"LineString","coordinates":[[-89.360919,29.995072],[-89.360898,29.995056],[-89.360871,29.995027],[-89.360854,29.994993],[-89.360838,29.994962],[-89.360836,29.99495],[-89.360837,29.994939]]}},{"type":"Feature","properties":{"tow":3,"lease":"30260","d":"2026-05-20","photo":2,"kind":"tow"},"geometry":{"type":"Point","coordinates":[-89.358028,29.993975]}},{"type":"Feature","properties":{"tow":3,"lease":"30260","d":"2026-05-20","photo":2,"kind":"track"},"geometry":{"type":"LineString","coordinates":[[-89.357948,29.993951],[-89.357987,29.993959],[-89.358028,29.993975],[-89.358061,29.993993]]}}]}