{"type":"FeatureCollection","metadata":{"source":"U.S. Census Bureau TIGERweb","vintage":2025,"layer":"Counties and county equivalents"},"features":[{"type":"Feature","properties":{"GEOID":"48007","STATE":"48","NAME":"Aransas County","CENTLAT":28.0846235,"CENTLON":-96.9915161,"bbox":[-97.26037,27.80378,-96.79057,28.31819]},"geometry":{"type":"Polygon","coordinates":[[[-97.26037,28.07543],[-97.13299,27.90001],[-97.11837,27.92553],[-97.09571,27.95783],[-97.05717,27.86541],[-97.06492,27.85241],[-97.05504,27.84271],[-96.98428,27.80378],[-96.9595,27.8753],[-96.93855,27.9012],[-96.87526,27.96992],[-96.8442,28.0003],[-96.81591,28.02284],[-96.85325,28.06106],[-96.85391,28.0637],[-96.84754,28.07004],[-96.84408,28.08435],[-96.83765,28.09467],[-96.83774,28.09949],[-96.83058,28.10906],[-96.79057,28.31819],[-97.12333,28.27274],[-97.12348,28.27083],[-97.12092,28.26988],[-97.1209,28.2643],[-97.11747,28.26004],[-97.11935,28.25632],[-97.12444,28.25587],[-97.12549,28.25344],[-97.11986,28.25116],[-97.11817,28.24708],[-97.11207,28.2457],[-97.11268,28.24306],[-97.10912,28.24069],[-97.10855,28.23712],[-97.10463,28.23631],[-97.10264,28.23304],[-97.10199,28.23419],[-97.09816,28.23242],[-97.10254,28.22703],[-97.08828,28.22073],[-97.0747,28.21924],[-97.0703,28.21419],[-97.06503,28.21454],[-97.06379,28.20794],[-97.06182,28.20629],[-97.05452,28.20379],[-97.04398,28.20882],[-97.03915,28.20727],[-97.03742,28.2013],[-97.02851,28.20323],[-97.01754,28.20288],[-97.02359,28.18766],[-97.14492,28.10262],[-97.22114,28.07441],[-97.23443,28.06246],[-97.23783,28.06151],[-97.24092,28.06196],[-97.25937,28.0747],[-97.26037,28.07543]]]}},{"type":"Feature","properties":{"GEOID":"48057","STATE":"48","NAME":"Calhoun County","CENTLAT":28.4389341,"CENTLON":-96.615179,"bbox":[-96.92996,28.02284,-96.32273,28.73028]},"geometry":{"type":"Polygon","coordinates":[[[-96.64344,28.71211],[-96.65905,28.70207],[-96.66522,28.70525],[-96.72281,28.66976],[-96.85306,28.63538],[-96.92996,28.587],[-96.92248,28.58011],[-96.91643,28.57052],[-96.91159,28.56888],[-96.90966,28.57246],[-96.90698,28.5724],[-96.90596,28.57152],[-96.90833,28.56734],[-96.90319,28.56676],[-96.90096,28.5635],[-96.90305,28.56128],[-96.898,28.55987],[-96.90156,28.55418],[-96.89762,28.55271],[-96.89533,28.54824],[-96.9004,28.54258],[-96.9015,28.53659],[-96.90561,28.53302],[-96.90028,28.52685],[-96.90233,28.52446],[-96.89851,28.52418],[-96.89718,28.52147],[-96.89897,28.5178],[-96.89625,28.51419],[-96.89267,28.51329],[-96.89149,28.50779],[-96.88066,28.50387],[-96.87918,28.4961],[-96.86408,28.48934],[-96.86132,28.47601],[-96.8564,28.47425],[-96.84865,28.4764],[-96.84806,28.47189],[-96.84308,28.47019],[-96.8406,28.466],[-96.83931,28.45775],[-96.82906,28.44771],[-96.82348,28.44558],[-96.8148,28.43077],[-96.80979,28.43075],[-96.79902,28.43893],[-96.79804,28.44178],[-96.78988,28.447],[-96.78539,28.44729],[-96.78224,28.44512],[-96.77902,28.43728],[-96.77159,28.4288],[-96.76455,28.42667],[-96.76654,28.42081],[-96.76943,28.4214],[-96.76836,28.42362],[-96.77171,28.42223],[-96.76594,28.41916],[-96.76485,28.41197],[-96.77871,28.40401],[-96.795,28.36468],[-96.79189,28.35904],[-96.79517,28.34682],[-96.79073,28.32821],[-96.79075,28.31628],[-96.83043,28.10962],[-96.83774,28.09949],[-96.83765,28.09467],[-96.84408,28.08435],[-96.84754,28.07004],[-96.85391,28.0637],[-96.85325,28.06106],[-96.81591,28.02284],[-96.73069,28.09127],[-96.61879,28.16952],[-96.531,28.22116],[-96.42581,28.26869],[-96.39565,28.27952],[-96.38048,28.38086],[-96.32273,28.64294],[-96.32352,28.6756],[-96.40444,28.67441],[-96.40428,28.68988],[-96.40008,28.68988],[-96.39955,28.72981],[-96.40753,28.73028],[-96.42047,28.71361],[-96.42858,28.71372],[-96.42839,28.70352],[-96.47792,28.70254],[-96.47496,28.70634],[-96.47742,28.7067],[-96.57358,28.70548],[-96.57566,28.69847],[-96.57919,28.69693],[-96.57775,28.70727],[-96.58079,28.71866],[-96.58809,28.72636],[-96.64322,28.71214],[-96.64344,28.71211]]]}},{"type":"Feature","properties":{"GEOID":"48071","STATE":"48","NAME":"Chambers County","CENTLAT":29.7082824,"CENTLON":-94.6714265,"bbox":[-95.01811,29.49627,-94.35339,29.88994]},"geometry":{"type":"Polygon","coordinates":[[[-94.40982,29.59666],[-94.40562,29.59803],[-94.39896,29.59447],[-94.39806,29.5968],[-94.38715,29.59432],[-94.38674,29.59583],[-94.37942,29.59584],[-94.37765,29.59391],[-94.37542,29.59658],[-94.37162,29.59725],[-94.36936,29.50062],[-94.35488,29.50633],[-94.35339,29.57609],[-94.35798,29.88746],[-94.44063,29.88699],[-94.4422,29.88705],[-94.44223,29.88915],[-94.44633,29.88953],[-94.50019,29.88994],[-94.98146,29.88428],[-94.97633,29.87651],[-94.97634,29.86782],[-94.96814,29.85934],[-94.95211,29.8546],[-94.93515,29.83462],[-94.91239,29.82926],[-94.90861,29.82549],[-94.91078,29.81912],[-94.90905,29.81376],[-94.91292,29.81324],[-94.9126,29.80929],[-94.91676,29.80381],[-94.92209,29.80313],[-94.9223,29.79756],[-94.9242,29.79518],[-94.91926,29.7944],[-94.92086,29.79264],[-94.91747,29.78687],[-94.92132,29.78168],[-94.92007,29.77536],[-94.91637,29.77379],[-94.91652,29.77229],[-94.92001,29.772],[-94.91425,29.76915],[-94.91341,29.7668],[-94.91911,29.76515],[-94.91837,29.75611],[-94.9234,29.75526],[-94.92965,29.75052],[-94.92866,29.7379],[-94.94108,29.725],[-94.94553,29.71709],[-94.94252,29.71334],[-94.93282,29.71459],[-94.93456,29.71042],[-94.93296,29.70521],[-94.92512,29.70319],[-94.9302,29.6978],[-94.92695,29.69666],[-94.92222,29.6996],[-94.91592,29.69866],[-94.9165,29.69594],[-94.92161,29.69323],[-94.91987,29.68686],[-94.92807,29.68034],[-94.93045,29.67371],[-94.96858,29.68255],[-94.99033,29.6717],[-95.00002,29.66557],[-95.00544,29.65963],[-95.01575,29.63894],[-95.01514,29.6322],[-95.00914,29.62448],[-95.00237,29.61896],[-94.99866,29.62077],[-95.00026,29.61781],[-94.99847,29.61969],[-94.99883,29.61689],[-94.99008,29.61098],[-94.98261,29.60177],[-94.9864,29.59542],[-94.99424,29.59036],[-94.99381,29.58816],[-95.00413,29.57947],[-95.01222,29.56785],[-95.01811,29.55485],[-95.01451,29.5389],[-95.00289,29.52599],[-94.98652,29.51528],[-94.96689,29.50846],[-94.9121,29.49627],[-94.89258,29.50791],[-94.87555,29.51455],[-94.85794,29.51678],[-94.83338,29.51691],[-94.82556,29.51893],[-94.81496,29.5278],[-94.80425,29.54485],[-94.79382,29.55094],[-94.79129,29.54998],[-94.77979,29.53055],[-94.76591,29.52492],[-94.75631,29.52462],[-94.7478,29.52751],[-94.74016,29.52717],[-94.70902,29.53756],[-94.687,29.53824],[-94.66212,29.54644],[-94.6144,29.55563],[-94.56174,29.5744],[-94.54511,29.57189],[-94.53694,29.56103],[-94.52333,29.55138],[-94.52349,29.54112],[-94.51815,29.54116],[-94.4991,29.54442],[-94.4959,29.54973],[-94.47533,29.55804],[-94.47033,29.55705],[-94.46312,29.56074],[-94.44966,29.56374],[-94.44266,29.56239],[-94.43938,29.56537],[-94.43057,29.56465],[-94.42723,29.56678],[-94.42357,29.56639],[-94.42193,29.56912],[-94.41715,29.56991],[-94.41574,29.57284],[-94.41299,29.57253],[-94.41402,29.5772],[-94.41716,29.57768],[-94.41276,29.58064],[-94.41645,29.58417],[-94.41374,29.5864],[-94.41461,29.58756],[-94.41878,29.586],[-94.41915,29.58873],[-94.41765,29.59237],[-94.41447,29.59035],[-94.40944,29.59606],[-94.40982,29.59666]]]}},{"type":"Feature","properties":{"GEOID":"48167","STATE":"48","NAME":"Galveston County","CENTLAT":29.3800088,"CENTLON":-94.8629005,"bbox":[-95.23298,29.06274,-94.37035,29.59803]},"geometry":{"type":"Polygon","coordinates":[[[-95.23298,29.46616],[-95.05614,29.19928],[-95.12994,29.08562],[-95.12397,29.08029],[-95.09165,29.06274],[-95.0864,29.06824],[-95.0002,29.10445],[-94.96424,29.12524],[-94.91217,29.15932],[-94.84015,29.19835],[-94.77279,29.23167],[-94.75074,29.24693],[-94.74117,29.25958],[-94.71331,29.28252],[-94.69231,29.27705],[-94.6803,29.2776],[-94.66622,29.28105],[-94.65036,29.29189],[-94.64242,29.30014],[-94.62903,29.32164],[-94.62417,29.3352],[-94.6239,29.34314],[-94.62859,29.35828],[-94.63605,29.37064],[-94.65031,29.38282],[-94.62519,29.39766],[-94.50019,29.45159],[-94.37587,29.49978],[-94.37035,29.50023],[-94.37162,29.59721],[-94.37467,29.59676],[-94.37689,29.59381],[-94.37833,29.59545],[-94.38629,29.59604],[-94.38841,29.59453],[-94.38866,29.59597],[-94.3936,29.59503],[-94.39806,29.5968],[-94.39967,29.5946],[-94.40562,29.59803],[-94.40872,29.5975],[-94.41381,29.59002],[-94.41765,29.59237],[-94.41918,29.58919],[-94.4191,29.58613],[-94.41371,29.5866],[-94.41676,29.58501],[-94.41328,29.58009],[-94.41734,29.57826],[-94.41482,29.57762],[-94.41255,29.57314],[-94.41603,29.57249],[-94.41751,29.56954],[-94.4212,29.56971],[-94.42264,29.56631],[-94.42702,29.56687],[-94.43057,29.56465],[-94.43938,29.56537],[-94.44266,29.56239],[-94.44866,29.564],[-94.46312,29.56074],[-94.47057,29.557],[-94.47464,29.55833],[-94.49532,29.55008],[-94.4985,29.5447],[-94.52077,29.54083],[-94.52349,29.54112],[-94.52347,29.55171],[-94.53645,29.56066],[-94.5431,29.57013],[-94.54746,29.57292],[-94.55738,29.57456],[-94.57052,29.57286],[-94.58588,29.56492],[-94.61541,29.55542],[-94.66184,29.54662],[-94.68596,29.53846],[-94.7105,29.53719],[-94.74006,29.52726],[-94.74634,29.52758],[-94.7557,29.52455],[-94.76389,29.52441],[-94.77914,29.5302],[-94.79129,29.54998],[-94.79382,29.55094],[-94.80423,29.54487],[-94.81496,29.5278],[-94.82522,29.51908],[-94.83338,29.51691],[-94.8752,29.51467],[-94.89209,29.50818],[-94.91197,29.49626],[-94.98272,29.51347],[-95.00339,29.52638],[-95.01451,29.5389],[-95.01821,29.5546],[-95.02052,29.55194],[-95.01736,29.54893],[-95.02507,29.54924],[-95.02774,29.54763],[-95.03035,29.55229],[-95.04189,29.5546],[-95.04988,29.55848],[-95.05862,29.55914],[-95.06833,29.55749],[-95.07205,29.54929],[-95.0806,29.54629],[-95.07922,29.53474],[-95.08523,29.53476],[-95.08935,29.53121],[-95.09317,29.53498],[-95.09685,29.53438],[-95.09398,29.52398],[-95.09863,29.51821],[-95.10254,29.52133],[-95.10618,29.51659],[-95.10404,29.51256],[-95.10498,29.51046],[-95.11342,29.51074],[-95.11877,29.50694],[-95.12401,29.51048],[-95.128,29.50906],[-95.13038,29.50494],[-95.14171,29.50636],[-95.14962,29.49849],[-95.15277,29.50037],[-95.16285,29.49754],[-95.16329,29.50192],[-95.16714,29.50248],[-95.16819,29.50638],[-95.17061,29.50714],[-95.17106,29.51002],[-95.16748,29.51175],[-95.16967,29.51489],[-95.17342,29.51448],[-95.17417,29.51771],[-95.17761,29.51694],[-95.1794,29.51989],[-95.18227,29.51863],[-95.18701,29.5239],[-95.18695,29.52657],[-95.18933,29.52705],[-95.18866,29.52902],[-95.1906,29.53072],[-95.18744,29.53395],[-95.18894,29.53589],[-95.19384,29.53654],[-95.19265,29.54131],[-95.19502,29.54358],[-95.19807,29.54235],[-95.19947,29.54453],[-95.19732,29.54876],[-95.19998,29.55265],[-95.19772,29.5572],[-95.19414,29.55742],[-95.19367,29.56004],[-95.19722,29.55836],[-95.2011,29.56318],[-95.20418,29.55819],[-95.21142,29.5592],[-95.2128,29.55624],[-95.2163,29.55568],[-95.2329,29.46659],[-95.23298,29.46616]]]}},{"type":"Feature","properties":{"GEOID":"28045","STATE":"28","NAME":"Hancock County","CENTLAT":30.3936471,"CENTLON":-89.4745652,"bbox":[-89.69045,30.16075,-89.30613,30.64837]},"geometry":{"type":"Polygon","coordinates":[[[-89.30679,30.23965],[-89.30685,30.3384],[-89.31115,30.3464],[-89.32615,30.3545],[-89.34085,30.35799],[-89.34145,30.64772],[-89.54423,30.64837],[-89.54451,30.51686],[-89.59521,30.51706],[-89.59574,30.50353],[-89.59915,30.50247],[-89.64707,30.50274],[-89.64696,30.45889],[-89.68989,30.45928],[-89.69045,30.45802],[-89.69008,30.45324],[-89.6867,30.45456],[-89.68363,30.45179],[-89.68493,30.44691],[-89.68264,30.44553],[-89.6826,30.44296],[-89.68504,30.43991],[-89.68381,30.43482],[-89.68031,30.43337],[-89.68092,30.42757],[-89.67945,30.42673],[-89.68104,30.42339],[-89.67775,30.41846],[-89.67977,30.41202],[-89.68416,30.41265],[-89.68269,30.41061],[-89.68371,30.40559],[-89.6791,30.40202],[-89.67032,30.38266],[-89.66466,30.37951],[-89.66583,30.37785],[-89.66324,30.37621],[-89.66375,30.37436],[-89.66009,30.37294],[-89.66255,30.37131],[-89.65907,30.36984],[-89.6585,30.36755],[-89.66112,30.36443],[-89.65877,30.36335],[-89.65723,30.35742],[-89.65365,30.35438],[-89.65152,30.35613],[-89.64603,30.35204],[-89.64459,30.34809],[-89.64175,30.34885],[-89.64159,30.34629],[-89.63651,30.34727],[-89.63373,30.34107],[-89.62988,30.33952],[-89.63249,30.32726],[-89.62872,30.32587],[-89.63046,30.32408],[-89.62971,30.32125],[-89.63377,30.32085],[-89.62619,30.31429],[-89.6316,30.30938],[-89.63982,30.30731],[-89.64155,30.30339],[-89.64043,30.2955],[-89.64751,30.29053],[-89.64578,30.28825],[-89.63881,30.2882],[-89.63142,30.27988],[-89.6304,30.27668],[-89.63232,30.26869],[-89.62531,30.26433],[-89.6256,30.26283],[-89.63049,30.26218],[-89.63161,30.25701],[-89.62675,30.25187],[-89.61534,30.24697],[-89.61384,30.24417],[-89.61683,30.22867],[-89.61574,30.22337],[-89.61105,30.21857],[-89.60207,30.21657],[-89.59697,30.21237],[-89.58878,30.20045],[-89.58499,30.19134],[-89.5752,30.18222],[-89.56721,30.18092],[-89.55463,30.18591],[-89.54584,30.1938],[-89.54004,30.19579],[-89.53374,30.19504],[-89.52824,30.18917],[-89.51477,30.16176],[-89.49497,30.16075],[-89.45395,30.16623],[-89.41671,30.17764],[-89.30613,30.17794],[-89.30679,30.23895],[-89.30679,30.23965]]]}},{"type":"Feature","properties":{"GEOID":"22045","STATE":"22","NAME":"Iberia Parish","CENTLAT":29.7559279,"CENTLON":-91.7655465,"bbox":[-92.04562,29.35894,-91.22224,30.12238]},"geometry":{"type":"Polygon","coordinates":[[[-91.80099,29.78005],[-91.71128,29.84613],[-91.62511,29.94456],[-91.25526,29.9716],[-91.25988,29.98798],[-91.2594,29.9999],[-91.25574,30.00133],[-91.23635,30.00089],[-91.22264,30.02876],[-91.22224,30.03904],[-91.22545,30.04227],[-91.23003,30.0419],[-91.23953,30.02973],[-91.24191,30.02953],[-91.25594,30.03978],[-91.26407,30.0508],[-91.2644,30.05498],[-91.26898,30.05926],[-91.33623,30.05903],[-91.34199,30.06147],[-91.35352,30.06093],[-91.35757,30.05714],[-91.36563,30.05495],[-91.36882,30.05872],[-91.37142,30.05898],[-91.48722,30.05805],[-91.49375,30.05005],[-91.49519,30.04194],[-91.50517,30.03965],[-91.50899,30.03329],[-91.59937,30.03304],[-91.60775,30.04627],[-91.6058,30.05635],[-91.61236,30.0678],[-91.63058,30.07188],[-91.64238,30.08341],[-91.65869,30.10787],[-91.66945,30.11289],[-91.67398,30.11141],[-91.67839,30.10496],[-91.68235,30.10649],[-91.68679,30.11311],[-91.69596,30.11556],[-91.69769,30.11948],[-91.70157,30.12128],[-91.70728,30.11767],[-91.71228,30.1172],[-91.7258,30.12218],[-91.73124,30.12238],[-91.7357,30.11887],[-91.74669,30.11769],[-91.75238,30.11234],[-91.76511,30.10851],[-91.76867,30.09641],[-91.76342,30.09694],[-91.76077,30.09137],[-91.77662,30.08737],[-91.80074,30.07048],[-91.7987,30.06693],[-91.81824,30.04393],[-91.87483,30.06741],[-91.89581,30.05722],[-91.90689,30.07259],[-91.95156,30.07245],[-91.96448,30.03741],[-91.96787,30.03818],[-91.98855,29.98829],[-91.99388,29.98283],[-91.99408,29.97659],[-91.98848,29.95479],[-91.98817,29.93799],[-91.97196,29.8323],[-91.99998,29.61449],[-92.00743,29.60637],[-92.00976,29.59839],[-92.0195,29.59297],[-92.02539,29.58539],[-92.03862,29.58505],[-92.04289,29.57813],[-92.04313,29.52166],[-92.04562,29.50581],[-92.04105,29.49051],[-92.02985,29.47596],[-92.01635,29.46689],[-91.99966,29.46168],[-91.98387,29.46071],[-91.97618,29.44912],[-91.96483,29.43939],[-91.94545,29.43134],[-91.93339,29.42977],[-91.91321,29.42021],[-91.91301,29.40568],[-91.90635,29.3874],[-91.89642,29.37409],[-91.87503,29.36199],[-91.85984,29.35894],[-91.84939,29.35907],[-91.83277,29.36256],[-91.82303,29.36631],[-91.80807,29.37654],[-91.79318,29.38254],[-91.77749,29.39608],[-91.76292,29.38575],[-91.74931,29.38087],[-91.73672,29.36965],[-91.72341,29.36342],[-91.71219,29.36063],[-91.6889,29.36159],[-91.67485,29.36632],[-91.66253,29.37459],[-91.64404,29.37556],[-91.63049,29.36621],[-91.61927,29.36202],[-91.59186,29.35937],[-91.5913,29.5077],[-91.72325,29.6613],[-91.93499,29.67106],[-91.93516,29.67258],[-91.87512,29.72274],[-91.80132,29.77979],[-91.80099,29.78005]]]}},{"type":"Feature","properties":{"GEOID":"22051","STATE":"22","NAME":"Jefferson Parish","CENTLAT":29.676606,"CENTLON":-90.0973253,"bbox":[-90.28028,29.09465,-89.89966,30.18961]},"geometry":{"type":"Polygon","coordinates":[[[-90.06875,29.92107],[-90.10715,29.90849],[-90.12743,29.91086],[-90.13857,29.91881],[-90.14007,29.9479],[-90.12488,29.97549],[-90.12091,30.02488],[-90.11854,30.02984],[-90.11937,30.03664],[-90.10812,30.16494],[-90.13978,30.17737],[-90.15626,30.18961],[-90.22033,30.1756],[-90.25989,30.16341],[-90.2726,30.1078],[-90.2792,30.05253],[-90.28028,29.9737],[-90.27359,29.92226],[-90.26828,29.90499],[-90.26486,29.8994],[-90.25927,29.8972],[-90.25476,29.88998],[-90.24334,29.88093],[-90.2429,29.87553],[-90.24027,29.87166],[-90.24017,29.86212],[-90.18224,29.82767],[-90.1732,29.82752],[-90.16726,29.81795],[-90.17094,29.81343],[-90.16948,29.80639],[-90.17312,29.80313],[-90.20235,29.75067],[-90.22816,29.69203],[-90.20259,29.69161],[-90.20039,29.68851],[-90.19448,29.69029],[-90.18729,29.68131],[-90.17039,29.68352],[-90.16418,29.67694],[-90.15684,29.67756],[-90.15788,29.66652],[-90.15507,29.66019],[-90.16112,29.64707],[-90.15933,29.64061],[-90.16119,29.62342],[-90.16002,29.61659],[-90.15712,29.61356],[-90.15769,29.60943],[-90.15117,29.60911],[-90.15622,29.60253],[-90.15116,29.59856],[-90.15362,29.59349],[-90.15134,29.58837],[-90.16464,29.57986],[-90.16514,29.57848],[-90.15869,29.57437],[-90.15846,29.57003],[-90.18617,29.56334],[-90.19129,29.55813],[-90.19218,29.55274],[-90.18755,29.54636],[-90.1722,29.5412],[-90.16501,29.52411],[-90.14461,29.4976],[-90.1375,29.47716],[-90.11413,29.46568],[-90.09518,29.46142],[-90.08585,29.4625],[-90.07824,29.46612],[-90.0627,29.45919],[-90.04904,29.46152],[-90.04745,29.45857],[-90.04864,29.45525],[-90.03789,29.4488],[-90.04204,29.44588],[-90.04208,29.44343],[-90.03755,29.43634],[-90.02921,29.43188],[-90.02231,29.43115],[-90.0208,29.42875],[-90.02506,29.41329],[-90.03329,29.39328],[-90.02952,29.38824],[-90.0309,29.38453],[-90.02863,29.37942],[-90.03614,29.36595],[-90.03571,29.35091],[-90.03049,29.34518],[-90.03019,29.33207],[-90.02785,29.32683],[-90.02155,29.32111],[-90.00645,29.31338],[-89.99926,29.30153],[-89.99973,29.29553],[-90.01427,29.27534],[-90.02925,29.26929],[-90.05605,29.23038],[-90.06353,29.21058],[-90.06258,29.20458],[-90.08115,29.19251],[-90.08639,29.18729],[-90.08485,29.18464],[-90.08999,29.18166],[-90.08624,29.17453],[-90.08974,29.16484],[-90.08909,29.09465],[-90.05557,29.12196],[-90.03232,29.13504],[-89.89966,29.15501],[-89.90013,29.25024],[-89.90227,29.29228],[-89.91443,29.30864],[-89.91881,29.32005],[-89.93069,29.33556],[-89.94652,29.37522],[-89.96091,29.43075],[-89.97079,29.44509],[-89.97747,29.44937],[-89.9775,29.48562],[-89.97961,29.4856],[-89.97895,29.53364],[-89.98042,29.53804],[-89.98525,29.53668],[-89.9887,29.55047],[-89.98838,29.56256],[-89.98251,29.56777],[-89.98324,29.57244],[-89.98579,29.57433],[-89.98102,29.57928],[-89.9803,29.58493],[-89.97617,29.58749],[-89.97666,29.58876],[-89.9808,29.58798],[-89.98183,29.59275],[-89.97984,29.59741],[-89.98357,29.60095],[-89.98002,29.60758],[-89.98456,29.60914],[-89.98748,29.61319],[-89.98818,29.6145],[-89.98453,29.6174],[-89.98755,29.62149],[-89.99485,29.6212],[-90.0022,29.62342],[-90.01585,29.674],[-90.0289,29.68655],[-90.03797,29.69974],[-90.04205,29.70969],[-90.06218,29.73101],[-90.06733,29.73888],[-90.06573,29.75311],[-90.07537,29.77122],[-90.06013,29.78471],[-90.06493,29.79093],[-90.07171,29.80684],[-90.06754,29.82366],[-90.06861,29.82883],[-90.05849,29.83669],[-90.04459,29.84137],[-90.04052,29.84571],[-90.02746,29.85285],[-90.02324,29.86192],[-90.02297,29.86821],[-90.00795,29.89687],[-90.05855,29.94533],[-90.05917,29.9304],[-90.06737,29.9219],[-90.06875,29.92107]]]}},{"type":"Feature","properties":{"GEOID":"22057","STATE":"22","NAME":"Lafourche Parish","CENTLAT":29.499712,"CENTLON":-90.4016816,"bbox":[-91.00689,28.99539,-89.99906,29.92201]},"geometry":{"type":"Polygon","coordinates":[[[-90.84421,29.75588],[-90.84219,29.75986],[-90.82789,29.7646],[-90.82773,29.77578],[-90.81999,29.77793],[-90.80592,29.77442],[-90.80428,29.77064],[-90.80607,29.7709],[-90.80609,29.76333],[-90.80399,29.763],[-90.80499,29.74948],[-90.79725,29.74449],[-90.78823,29.74753],[-90.78449,29.74463],[-90.78759,29.74337],[-90.78616,29.73247],[-90.78451,29.73279],[-90.78088,29.72676],[-90.76537,29.69456],[-90.74407,29.67684],[-90.73633,29.675],[-90.7273,29.67558],[-90.70534,29.66391],[-90.68023,29.63889],[-90.65804,29.60786],[-90.65245,29.6041],[-90.61959,29.59854],[-90.61752,29.59056],[-90.60363,29.57394],[-90.57493,29.55913],[-90.56841,29.53519],[-90.55655,29.5351],[-90.54647,29.52727],[-90.54197,29.51907],[-90.53619,29.51327],[-90.53752,29.50551],[-90.52577,29.49856],[-90.52003,29.491],[-90.50994,29.4837],[-90.50642,29.47751],[-90.49722,29.47499],[-90.48684,29.46203],[-90.48109,29.46105],[-90.4758,29.45636],[-90.469,29.45407],[-90.45939,29.43721],[-90.458,29.43067],[-90.45123,29.42468],[-90.44808,29.418],[-90.4267,29.40009],[-90.41938,29.39078],[-90.39843,29.38097],[-90.38444,29.36612],[-90.37959,29.34905],[-90.3821,29.34381],[-90.38208,29.33442],[-90.38647,29.32474],[-90.37849,29.31119],[-90.37667,29.30288],[-90.3831,29.29561],[-90.38363,29.28157],[-90.39044,29.27618],[-90.39716,29.26302],[-90.40385,29.25525],[-90.40274,29.2432],[-90.40955,29.24019],[-90.40963,28.99539],[-90.38494,28.99807],[-90.36841,29.00343],[-90.34432,29.00318],[-90.31116,29.01084],[-90.23906,29.0331],[-90.21921,29.03153],[-90.21008,29.03308],[-90.15125,29.05635],[-90.12514,29.06986],[-90.08909,29.09465],[-90.08993,29.16411],[-90.08642,29.17358],[-90.08999,29.18166],[-90.08485,29.18464],[-90.08655,29.18684],[-90.08126,29.1924],[-90.0621,29.20502],[-90.06353,29.21058],[-90.05605,29.23038],[-90.03377,29.2609],[-90.03086,29.26754],[-90.01427,29.27534],[-90.00007,29.29491],[-89.99906,29.30026],[-90.00259,29.30905],[-90.00645,29.31338],[-90.02104,29.32074],[-90.02785,29.32683],[-90.03019,29.33207],[-90.03033,29.34476],[-90.03571,29.35091],[-90.03614,29.36595],[-90.02863,29.37942],[-90.03053,29.38366],[-90.02952,29.38824],[-90.03329,29.39328],[-90.02062,29.42846],[-90.02231,29.43115],[-90.02815,29.43177],[-90.03755,29.43634],[-90.04208,29.44343],[-90.04204,29.44588],[-90.03738,29.44783],[-90.04864,29.45525],[-90.04745,29.45857],[-90.04904,29.46152],[-90.0627,29.45919],[-90.07816,29.46613],[-90.08585,29.4625],[-90.09518,29.46142],[-90.11413,29.46568],[-90.1375,29.47716],[-90.14448,29.49737],[-90.16465,29.5235],[-90.1722,29.5412],[-90.18755,29.54636],[-90.19196,29.55174],[-90.19177,29.55734],[-90.18709,29.56267],[-90.17703,29.56664],[-90.16602,29.56725],[-90.15846,29.57003],[-90.15777,29.57366],[-90.16453,29.57767],[-90.16464,29.57986],[-90.15211,29.58768],[-90.15134,29.59002],[-90.15362,29.59349],[-90.15154,29.5961],[-90.15189,29.59964],[-90.15622,29.60253],[-90.15136,29.60797],[-90.1519,29.61019],[-90.15769,29.60943],[-90.15712,29.61356],[-90.16002,29.61659],[-90.16114,29.62311],[-90.15934,29.63966],[-90.16112,29.64623],[-90.15507,29.66019],[-90.15801,29.66938],[-90.15603,29.67689],[-90.16508,29.67743],[-90.17039,29.68352],[-90.18639,29.68091],[-90.1952,29.69051],[-90.20039,29.68851],[-90.20269,29.69091],[-90.20729,29.69165],[-90.33982,29.69297],[-90.35277,29.69589],[-90.36154,29.70745],[-90.36021,29.7245],[-90.36329,29.73122],[-90.36108,29.73815],[-90.37161,29.7475],[-90.37341,29.76129],[-90.38068,29.7652],[-90.39209,29.76742],[-90.40523,29.77434],[-90.40979,29.77217],[-90.42346,29.77663],[-90.42989,29.77639],[-90.44597,29.78996],[-90.45731,29.79509],[-90.46804,29.80347],[-90.47591,29.81363],[-90.47652,29.82972],[-90.48008,29.84007],[-90.47915,29.84553],[-90.48849,29.85838],[-90.50027,29.86538],[-90.51015,29.86326],[-90.51569,29.8647],[-90.53542,29.89106],[-90.553,29.89334],[-90.59351,29.89293],[-90.60306,29.88526],[-90.60982,29.88331],[-90.61209,29.8911],[-90.61766,29.89023],[-90.628,29.89523],[-90.65157,29.89156],[-90.65573,29.88927],[-90.668,29.8895],[-90.67498,29.89288],[-90.68044,29.89247],[-90.68368,29.89806],[-90.68838,29.89969],[-90.68985,29.9044],[-90.69653,29.90052],[-90.70024,29.9034],[-90.70618,29.90099],[-90.70951,29.90178],[-90.71056,29.89682],[-90.71677,29.89662],[-90.71828,29.90284],[-90.72249,29.90629],[-90.74058,29.90472],[-90.75807,29.91297],[-90.77523,29.91745],[-90.7787,29.92201],[-90.78577,29.92169],[-90.78543,29.90759],[-90.88575,29.90535],[-90.88527,29.87756],[-90.90981,29.87719],[-90.92508,29.82958],[-90.95188,29.78657],[-90.98184,29.74488],[-91.00689,29.71509],[-90.88019,29.71681],[-90.88209,29.7459],[-90.84143,29.74638],[-90.8442,29.75577],[-90.84421,29.75588]]]}},{"type":"Feature","properties":{"GEOID":"22071","STATE":"22","NAME":"Orleans Parish","CENTLAT":30.0686521,"CENTLON":-89.9282102,"bbox":[-90.14007,29.86666,-89.62505,30.19852]},"geometry":{"type":"Polygon","coordinates":[[[-90.14007,29.9479],[-90.13857,29.91881],[-90.12743,29.91086],[-90.10437,29.90883],[-90.07257,29.919],[-90.05917,29.9304],[-90.05855,29.94533],[-90.00806,29.89553],[-90.00252,29.89235],[-90.00229,29.89729],[-89.98918,29.88939],[-89.98738,29.90442],[-89.97727,29.90202],[-89.97308,29.90422],[-89.95901,29.90264],[-89.93539,29.89296],[-89.91759,29.86666],[-89.91071,29.86786],[-89.90347,29.87549],[-89.90309,29.88659],[-89.90827,29.89796],[-89.92436,29.91882],[-89.93695,29.92436],[-89.96977,29.9247],[-89.98722,29.93125],[-90.0121,29.94598],[-89.99869,29.97367],[-89.99553,29.97265],[-89.99001,29.98916],[-89.98224,29.98723],[-89.97497,29.99436],[-89.97239,29.99477],[-89.97029,29.99168],[-89.96023,29.98597],[-89.95573,29.98653],[-89.95291,29.98117],[-89.94574,29.98243],[-89.93947,29.98029],[-89.93772,29.98461],[-89.92437,29.98919],[-89.92382,29.99139],[-89.91342,29.99933],[-89.90448,30.00235],[-89.89805,30.00086],[-89.89537,30.00224],[-89.88579,29.99667],[-89.88519,29.99139],[-89.8816,29.9862],[-89.87602,29.98699],[-89.87031,29.99305],[-89.86353,29.98762],[-89.85907,29.9923],[-89.86533,29.99742],[-89.86026,30.00088],[-89.85831,30.00702],[-89.85051,30.00774],[-89.83895,30.02543],[-89.81797,30.04131],[-89.80737,30.04526],[-89.78253,30.04537],[-89.7644,30.04206],[-89.74859,30.0359],[-89.74458,30.03008],[-89.73332,30.02205],[-89.71967,30.02429],[-89.7163,30.02726],[-89.73158,30.04995],[-89.72927,30.06051],[-89.7198,30.06694],[-89.7094,30.07002],[-89.69469,30.07141],[-89.68336,30.07612],[-89.68251,30.0911],[-89.67795,30.1085],[-89.66918,30.11066],[-89.6545,30.12054],[-89.64862,30.13056],[-89.64132,30.13793],[-89.62762,30.14514],[-89.62505,30.15462],[-89.64041,30.15822],[-89.65541,30.1593],[-89.66477,30.16679],[-89.68685,30.17549],[-89.69257,30.17424],[-89.70022,30.16668],[-89.71569,30.16084],[-89.7237,30.1629],[-89.73677,30.17467],[-89.74408,30.1775],[-89.74802,30.17634],[-89.75625,30.16904],[-89.77591,30.1594],[-89.79741,30.16076],[-89.82079,30.18],[-89.8484,30.19008],[-89.8662,30.19143],[-89.90227,30.19852],[-89.97442,30.17618],[-90.0034,30.163],[-90.04028,30.15511],[-90.08253,30.1572],[-90.10812,30.16494],[-90.11937,30.03664],[-90.11854,30.02984],[-90.12099,30.02355],[-90.12499,29.97417],[-90.1376,29.95149],[-90.14007,29.9479]]]}},{"type":"Feature","properties":{"GEOID":"22075","STATE":"22","NAME":"Plaquemines Parish","CENTLAT":29.3805106,"CENTLON":-89.4812905,"bbox":[-90.07537,28.85527,-88.87924,29.90489]},"geometry":{"type":"Polygon","coordinates":[[[-89.56166,29.18808],[-89.52047,29.17219],[-89.50232,29.15838],[-89.49414,29.14545],[-89.48614,29.13722],[-89.48121,29.1222],[-89.46867,29.10746],[-89.46769,29.09617],[-89.46342,29.08282],[-89.46574,28.97444],[-89.4697,28.9633],[-89.4696,28.95725],[-89.48099,28.94165],[-89.49023,28.92443],[-89.49286,28.90796],[-89.49113,28.89734],[-89.4835,28.88097],[-89.47606,28.87286],[-89.46323,28.86409],[-89.44945,28.85815],[-89.4338,28.85527],[-89.4182,28.85603],[-89.40099,28.86063],[-89.38473,28.8715],[-89.36223,28.89557],[-89.34454,28.90997],[-89.32126,28.93376],[-89.30515,28.95609],[-89.29407,28.96319],[-89.2796,28.97778],[-89.2349,28.98715],[-89.22437,28.97749],[-89.20958,28.9702],[-89.20485,28.95293],[-89.19654,28.93996],[-89.18533,28.93048],[-89.16907,28.92257],[-89.15099,28.9191],[-89.13328,28.91973],[-89.11485,28.92637],[-89.10509,28.93301],[-89.09606,28.94249],[-89.09027,28.95388],[-89.08883,28.96115],[-89.04564,29.00694],[-89.02591,29.01561],[-89.01269,29.02768],[-89.00291,29.0488],[-88.9969,29.0853],[-88.98539,29.09418],[-88.96744,29.09507],[-88.94576,29.10395],[-88.92781,29.11728],[-88.92171,29.12497],[-88.9146,29.14362],[-88.91392,29.16553],[-88.91765,29.17944],[-88.91288,29.18743],[-88.90915,29.20016],[-88.90881,29.21023],[-88.91017,29.22029],[-88.91831,29.23628],[-88.92509,29.24338],[-88.94205,29.25374],[-88.9675,29.26262],[-88.98242,29.26321],[-89.00005,29.27148],[-89.02262,29.27446],[-89.06943,29.2943],[-89.07723,29.3011],[-89.08483,29.31771],[-89.09453,29.32893],[-89.1121,29.33963],[-89.11372,29.34948],[-89.12162,29.3665],[-89.13761,29.38143],[-89.14207,29.42946],[-89.12551,29.44751],[-89.11945,29.45807],[-89.0723,29.47084],[-89.05286,29.48],[-89.03887,29.49223],[-89.01736,29.51903],[-89.00004,29.53253],[-88.9602,29.5771],[-88.94435,29.58629],[-88.92466,29.60133],[-88.91266,29.61178],[-88.87924,29.64741],[-89.04776,29.64784],[-89.17473,29.63457],[-89.48459,29.61755],[-89.49216,29.62958],[-89.50429,29.63417],[-89.50883,29.64039],[-89.52089,29.65025],[-89.54602,29.65277],[-89.55678,29.66009],[-89.56517,29.65987],[-89.57239,29.66572],[-89.58848,29.6682],[-89.59961,29.67476],[-89.62685,29.67964],[-89.64676,29.69962],[-89.66028,29.70875],[-89.68321,29.7155],[-89.68753,29.72126],[-89.69188,29.73799],[-89.70576,29.75313],[-89.71937,29.75738],[-89.73387,29.75859],[-89.74418,29.75715],[-89.75802,29.7585],[-89.76773,29.75532],[-89.78181,29.75663],[-89.79205,29.76273],[-89.79157,29.76698],[-89.7862,29.77328],[-89.80756,29.79715],[-89.8164,29.80133],[-89.82692,29.80198],[-89.85982,29.79304],[-89.86672,29.79349],[-89.87131,29.79706],[-89.8744,29.80488],[-89.87988,29.80893],[-89.87896,29.816],[-89.8955,29.83278],[-89.91071,29.86786],[-89.91759,29.86666],[-89.93539,29.89296],[-89.95885,29.9026],[-89.97251,29.90438],[-89.97837,29.90217],[-89.9868,29.90489],[-89.98918,29.88939],[-90.00227,29.89781],[-90.00252,29.89235],[-90.00806,29.89553],[-90.02297,29.86821],[-90.02298,29.86268],[-90.0269,29.85346],[-90.0458,29.84085],[-90.05849,29.83669],[-90.06866,29.82854],[-90.06754,29.82366],[-90.07171,29.80684],[-90.06493,29.79093],[-90.06004,29.78413],[-90.07537,29.77122],[-90.06573,29.75311],[-90.06733,29.73888],[-90.06218,29.73101],[-90.04063,29.70798],[-90.03797,29.69974],[-90.02952,29.68709],[-90.01588,29.67441],[-90.00252,29.62427],[-90.00074,29.62231],[-89.98928,29.62227],[-89.98642,29.62043],[-89.9848,29.61614],[-89.98803,29.61385],[-89.98513,29.60952],[-89.98013,29.60676],[-89.98354,29.60182],[-89.97984,29.59741],[-89.98128,29.58961],[-89.9808,29.58798],[-89.97666,29.58876],[-89.97617,29.58749],[-89.9803,29.58493],[-89.98102,29.57928],[-89.98586,29.57545],[-89.98251,29.56777],[-89.98838,29.56256],[-89.98868,29.54889],[-89.98488,29.5402],[-89.98569,29.53723],[-89.98267,29.53611],[-89.97979,29.53803],[-89.97895,29.53237],[-89.97961,29.4856],[-89.9775,29.48562],[-89.97747,29.44937],[-89.97079,29.44509],[-89.96091,29.43075],[-89.94652,29.37522],[-89.93069,29.33556],[-89.91881,29.32008],[-89.91443,29.30864],[-89.90227,29.29228],[-89.90013,29.25024],[-89.89966,29.15501],[-89.61043,29.19863],[-89.59916,29.19788],[-89.56473,29.18888],[-89.56166,29.18808]]]}},{"type":"Feature","properties":{"GEOID":"48391","STATE":"48","NAME":"Refugio County","CENTLAT":28.3215627,"CENTLON":-97.1596971,"bbox":[-97.54103,28.0616,-96.76429,28.55474]},"geometry":{"type":"Polygon","coordinates":[[[-97.12533,28.11626],[-97.02359,28.18766],[-97.01754,28.20288],[-97.03698,28.20139],[-97.03876,28.20678],[-97.04281,28.20885],[-97.04808,28.20814],[-97.04694,28.20696],[-97.05506,28.20402],[-97.06228,28.20648],[-97.06487,28.21431],[-97.06987,28.21412],[-97.0747,28.21924],[-97.08828,28.22073],[-97.10195,28.22639],[-97.09777,28.23133],[-97.09853,28.23263],[-97.10272,28.233],[-97.10535,28.23646],[-97.10794,28.23651],[-97.10876,28.24043],[-97.11232,28.24228],[-97.11252,28.24626],[-97.11777,28.24676],[-97.11897,28.25036],[-97.1256,28.25371],[-97.1238,28.25623],[-97.11949,28.25623],[-97.11747,28.26004],[-97.12085,28.26419],[-97.12073,28.26941],[-97.12425,28.27143],[-97.12333,28.27274],[-96.79147,28.31903],[-96.79073,28.32821],[-96.79478,28.34294],[-96.7919,28.35909],[-96.79474,28.36365],[-96.77871,28.40401],[-96.76429,28.41259],[-96.76621,28.41934],[-96.77217,28.42183],[-96.76931,28.42377],[-96.76896,28.42079],[-96.76648,28.42107],[-96.76503,28.42686],[-96.77169,28.42949],[-96.77858,28.43666],[-96.78196,28.44477],[-96.78665,28.44728],[-96.79804,28.44178],[-96.79902,28.43893],[-96.80913,28.43085],[-96.8144,28.43048],[-96.82275,28.44483],[-96.82967,28.44816],[-96.83366,28.45383],[-96.83914,28.45759],[-96.84166,28.46802],[-96.84425,28.47116],[-96.84806,28.47189],[-96.84911,28.4768],[-96.85536,28.47421],[-96.86208,28.47676],[-96.86372,28.48881],[-96.87918,28.4961],[-96.88051,28.50371],[-96.88303,28.5055],[-96.89095,28.50718],[-96.89278,28.50588],[-96.90233,28.50915],[-96.9032,28.50646],[-96.90657,28.50588],[-96.91551,28.49917],[-96.91614,28.49752],[-96.91143,28.4936],[-96.90995,28.48961],[-96.91528,28.4858],[-96.92589,28.489],[-96.93679,28.49773],[-96.95081,28.50126],[-96.95248,28.50336],[-96.96278,28.50288],[-96.97004,28.50504],[-96.97939,28.50292],[-96.98255,28.49965],[-96.98555,28.49995],[-96.99376,28.50404],[-96.99461,28.50871],[-97.00464,28.50891],[-97.00934,28.51485],[-97.01974,28.52026],[-97.02268,28.51712],[-97.02432,28.52347],[-97.02259,28.52551],[-97.02713,28.53241],[-97.02704,28.5365],[-97.02332,28.53676],[-97.02472,28.53899],[-97.03124,28.54159],[-97.03178,28.5392],[-97.03562,28.53759],[-97.04081,28.53175],[-97.04499,28.53206],[-97.04555,28.53507],[-97.05132,28.53495],[-97.05164,28.53669],[-97.04726,28.5372],[-97.04816,28.54056],[-97.04731,28.53955],[-97.04407,28.54223],[-97.04819,28.54737],[-97.04488,28.54997],[-97.04914,28.54997],[-97.05114,28.54564],[-97.0523,28.54898],[-97.05647,28.55016],[-97.05823,28.54704],[-97.0627,28.5474],[-97.05923,28.54444],[-97.06193,28.54086],[-97.06326,28.54379],[-97.06562,28.54237],[-97.06738,28.54446],[-97.07143,28.5425],[-97.06974,28.54452],[-97.07158,28.54678],[-97.0756,28.54446],[-97.07452,28.54127],[-97.07709,28.54025],[-97.07644,28.54318],[-97.07989,28.54522],[-97.08245,28.54161],[-97.08002,28.53737],[-97.07764,28.53753],[-97.07734,28.53414],[-97.07871,28.53326],[-97.07971,28.53522],[-97.08262,28.53245],[-97.08289,28.53454],[-97.08733,28.53296],[-97.08628,28.53533],[-97.08771,28.53665],[-97.08924,28.53666],[-97.08991,28.53387],[-97.09203,28.54011],[-97.09346,28.53765],[-97.09492,28.53843],[-97.09607,28.54238],[-97.09449,28.54385],[-97.09839,28.54483],[-97.09638,28.5473],[-97.10264,28.54746],[-97.09933,28.54928],[-97.10327,28.55021],[-97.10425,28.55474],[-97.11002,28.55381],[-97.11884,28.54659],[-97.1235,28.54859],[-97.12337,28.54525],[-97.1256,28.54634],[-97.12549,28.5488],[-97.12793,28.54533],[-97.13127,28.54815],[-97.13164,28.55095],[-97.13472,28.54968],[-97.13962,28.55417],[-97.1431,28.54836],[-97.14583,28.54972],[-97.14729,28.54654],[-97.15151,28.54924],[-97.15137,28.55048],[-97.14863,28.54957],[-97.14838,28.55283],[-97.15632,28.54799],[-97.15646,28.55104],[-97.16077,28.55072],[-97.1607,28.55336],[-97.37511,28.38917],[-97.54103,28.16473],[-97.52742,28.16057],[-97.52388,28.15313],[-97.52075,28.15146],[-97.51492,28.15329],[-97.50813,28.15928],[-97.49509,28.1659],[-97.48238,28.16862],[-97.47742,28.17878],[-97.47414,28.17876],[-97.47531,28.16503],[-97.4732,28.15616],[-97.46951,28.15449],[-97.4564,28.16058],[-97.4579,28.15554],[-97.45379,28.15424],[-97.45187,28.14902],[-97.44958,28.1479],[-97.44591,28.14979],[-97.4446,28.15375],[-97.44227,28.15402],[-97.44096,28.15123],[-97.44284,28.14738],[-97.44226,28.14244],[-97.44753,28.13584],[-97.44577,28.13267],[-97.44148,28.13178],[-97.43913,28.13863],[-97.43451,28.13791],[-97.42229,28.1424],[-97.42398,28.13492],[-97.43526,28.12966],[-97.42785,28.12778],[-97.42702,28.11746],[-97.42298,28.11775],[-97.42014,28.12157],[-97.41733,28.12215],[-97.40608,28.11959],[-97.40437,28.10901],[-97.40065,28.11253],[-97.40092,28.11951],[-97.39631,28.11831],[-97.40564,28.12411],[-97.40261,28.13099],[-97.38862,28.12928],[-97.38693,28.12491],[-97.38447,28.12411],[-97.38199,28.12612],[-97.37809,28.13897],[-97.36711,28.1286],[-97.3569,28.1234],[-97.3502,28.12305],[-97.3459,28.11845],[-97.3439,28.12063],[-97.34326,28.13019],[-97.34152,28.13217],[-97.32696,28.12727],[-97.32492,28.12418],[-97.33042,28.11939],[-97.32718,28.11874],[-97.31757,28.12909],[-97.3184,28.1332],[-97.32616,28.13165],[-97.32719,28.13388],[-97.3178,28.13749],[-97.31421,28.13293],[-97.30893,28.11945],[-97.31133,28.11533],[-97.31695,28.11575],[-97.31815,28.11291],[-97.31689,28.11007],[-97.30134,28.10383],[-97.29568,28.10607],[-97.29425,28.11502],[-97.28936,28.11415],[-97.28447,28.10006],[-97.28398,28.09133],[-97.26353,28.0886],[-97.26083,28.08603],[-97.26318,28.08095],[-97.26109,28.07625],[-97.24031,28.0616],[-97.23505,28.06232],[-97.2212,28.07439],[-97.14492,28.10262],[-97.12575,28.11597],[-97.12533,28.11626]]]}},{"type":"Feature","properties":{"GEOID":"22087","STATE":"22","NAME":"St. Bernard Parish","CENTLAT":29.9048677,"CENTLON":-89.3041166,"bbox":[-90.0121,29.61755,-88.75839,30.21216]},"geometry":{"type":"Polygon","coordinates":[[[-90.01048,29.9496],[-90.0121,29.94598],[-89.98021,29.92818],[-89.96167,29.9238],[-89.93606,29.92421],[-89.92878,29.92179],[-89.92102,29.91573],[-89.90827,29.89796],[-89.90328,29.88744],[-89.90347,29.87549],[-89.90727,29.87037],[-89.91104,29.86854],[-89.90016,29.84299],[-89.89593,29.83324],[-89.87896,29.816],[-89.87985,29.80813],[-89.87454,29.80535],[-89.87472,29.80267],[-89.86869,29.79471],[-89.86173,29.79274],[-89.82886,29.80164],[-89.8164,29.80133],[-89.80756,29.79715],[-89.7862,29.77328],[-89.79157,29.76698],[-89.79205,29.76273],[-89.78282,29.75709],[-89.76773,29.75532],[-89.75802,29.7585],[-89.74518,29.7571],[-89.73387,29.75859],[-89.71937,29.75738],[-89.70576,29.75313],[-89.69221,29.73846],[-89.68732,29.72065],[-89.68385,29.71603],[-89.66028,29.70875],[-89.64744,29.70025],[-89.62572,29.67893],[-89.59961,29.67476],[-89.58698,29.66775],[-89.57239,29.66572],[-89.56517,29.65987],[-89.55678,29.66009],[-89.54486,29.65221],[-89.52089,29.65025],[-89.50883,29.64039],[-89.50429,29.63417],[-89.49225,29.62977],[-89.48459,29.61755],[-89.17473,29.63457],[-89.04776,29.64784],[-88.87924,29.64741],[-88.82343,29.71499],[-88.79729,29.75967],[-88.76725,29.84077],[-88.76272,29.86699],[-88.75839,29.91827],[-88.76015,29.94455],[-88.76449,29.97194],[-88.78367,30.02668],[-88.80852,30.06548],[-88.83435,30.09071],[-88.85491,30.13553],[-89.09648,30.16583],[-89.18367,30.21216],[-89.26098,30.182],[-89.28839,30.17847],[-89.42158,30.177],[-89.45395,30.16623],[-89.50005,30.16009],[-89.54758,30.14504],[-89.57533,30.1398],[-89.58677,30.13881],[-89.59951,30.14044],[-89.62505,30.15349],[-89.62762,30.14514],[-89.64099,30.13861],[-89.65698,30.11838],[-89.66892,30.11088],[-89.67816,30.10828],[-89.68371,30.07602],[-89.69534,30.07111],[-89.7094,30.07002],[-89.7198,30.06694],[-89.72745,30.06266],[-89.73057,30.05875],[-89.73125,30.04878],[-89.7163,30.0281],[-89.71867,30.02487],[-89.72465,30.02245],[-89.73394,30.02227],[-89.74426,30.02976],[-89.74931,30.0364],[-89.75215,30.03615],[-89.7644,30.04206],[-89.78253,30.04537],[-89.81191,30.04436],[-89.83895,30.02543],[-89.85051,30.00774],[-89.85774,30.00788],[-89.85989,30.0017],[-89.86535,29.99708],[-89.85924,29.99262],[-89.86241,29.98798],[-89.86571,29.98794],[-89.87031,29.99305],[-89.87602,29.98699],[-89.88094,29.98581],[-89.88523,29.99156],[-89.88499,29.99584],[-89.89476,30.00236],[-89.8971,30.00082],[-89.90401,30.00254],[-89.91396,29.99916],[-89.92352,29.99179],[-89.92403,29.98933],[-89.93466,29.98646],[-89.94021,29.98016],[-89.94553,29.98243],[-89.95291,29.98117],[-89.95573,29.98653],[-89.96023,29.98597],[-89.97029,29.99168],[-89.97211,29.99466],[-89.97462,29.99457],[-89.98164,29.98743],[-89.98911,29.98963],[-89.99553,29.97265],[-89.99845,29.97378],[-89.99981,29.97177],[-90.01023,29.95014],[-90.01048,29.9496]]]}},{"type":"Feature","properties":{"GEOID":"22101","STATE":"22","NAME":"St. Mary Parish","CENTLAT":29.6345344,"CENTLON":-91.4728237,"bbox":[-91.93516,29.23961,-91.08261,29.9563]},"geometry":{"type":"Polygon","coordinates":[[[-91.18196,29.72917],[-91.19529,29.74042],[-91.21519,29.75121],[-91.2294,29.74892],[-91.29858,29.76497],[-91.35177,29.76628],[-91.38607,29.78347],[-91.37364,29.8344],[-91.40113,29.87353],[-91.41291,29.90421],[-91.47196,29.94796],[-91.47195,29.9563],[-91.62435,29.94546],[-91.71127,29.84614],[-91.84105,29.75041],[-91.93516,29.67258],[-91.93269,29.67057],[-91.91024,29.66926],[-91.72325,29.6613],[-91.5913,29.5077],[-91.59186,29.35937],[-91.58291,29.35697],[-91.57465,29.35122],[-91.56075,29.3454],[-91.5447,29.34289],[-91.52974,29.34445],[-91.42113,29.30283],[-91.40502,29.28806],[-91.39165,29.28187],[-91.38346,29.26973],[-91.36026,29.24782],[-91.35427,29.23961],[-91.35307,29.33136],[-91.3454,29.33265],[-91.34054,29.32967],[-91.34977,29.32508],[-91.34972,29.3221],[-91.34773,29.31773],[-91.34234,29.3145],[-91.33865,29.30909],[-91.31018,29.30583],[-91.30537,29.30886],[-91.29182,29.31136],[-91.28931,29.31587],[-91.2909,29.32082],[-91.27945,29.32625],[-91.27665,29.32983],[-91.27628,29.34236],[-91.26934,29.35822],[-91.26575,29.36168],[-91.25738,29.36361],[-91.25191,29.36842],[-91.24974,29.36785],[-91.24965,29.36931],[-91.23579,29.37394],[-91.21985,29.39801],[-91.21846,29.40723],[-91.21205,29.42047],[-91.2125,29.424],[-91.22117,29.43642],[-91.23368,29.43562],[-91.24931,29.44407],[-91.25833,29.44432],[-91.2607,29.46368],[-91.26549,29.46875],[-91.26565,29.47236],[-91.27366,29.47943],[-91.27145,29.49563],[-91.2651,29.50969],[-91.27209,29.52812],[-91.26918,29.53916],[-91.26255,29.54408],[-91.24589,29.54649],[-91.23597,29.55037],[-91.22349,29.56187],[-91.22564,29.57451],[-91.21897,29.58388],[-91.19882,29.5997],[-91.19061,29.6027],[-91.18369,29.60801],[-91.17533,29.60883],[-91.17289,29.59743],[-91.16231,29.59282],[-91.15759,29.59516],[-91.15145,29.60367],[-91.14009,29.60233],[-91.13878,29.60944],[-91.12162,29.60799],[-91.119,29.60976],[-91.11717,29.61752],[-91.10286,29.61874],[-91.09537,29.62361],[-91.08897,29.6223],[-91.08261,29.62681],[-91.08339,29.63122],[-91.08963,29.63762],[-91.10539,29.64328],[-91.09991,29.65792],[-91.09897,29.6879],[-91.09515,29.69426],[-91.09581,29.69677],[-91.11227,29.70293],[-91.13412,29.72407],[-91.1597,29.72382],[-91.18048,29.72845],[-91.18196,29.72917]]]}},{"type":"Feature","properties":{"GEOID":"22103","STATE":"22","NAME":"St. Tammany Parish","CENTLAT":30.4077557,"CENTLON":-89.9544443,"bbox":[-90.25732,30.13907,-89.49497,30.71244]},"geometry":{"type":"Polygon","coordinates":[[[-89.75657,30.49922],[-89.75764,30.50128],[-89.7532,30.50166],[-89.75284,30.50663],[-89.75329,30.50778],[-89.75787,30.50504],[-89.75864,30.50685],[-89.75433,30.50899],[-89.76051,30.51172],[-89.75734,30.51832],[-89.76749,30.51304],[-89.7688,30.51795],[-89.77308,30.5212],[-89.77019,30.52148],[-89.76953,30.52464],[-89.77168,30.52638],[-89.76905,30.52918],[-89.77712,30.53284],[-89.77405,30.5374],[-89.77898,30.54369],[-89.78968,30.54466],[-89.80381,30.54923],[-89.80267,30.55081],[-89.7997,30.54806],[-89.79196,30.54879],[-89.79424,30.55628],[-89.80342,30.55814],[-89.80378,30.56104],[-89.80125,30.56377],[-89.79681,30.56157],[-89.79125,30.56288],[-89.78686,30.56905],[-89.79049,30.57023],[-89.79277,30.56417],[-89.79571,30.56601],[-89.79357,30.56769],[-89.79464,30.56987],[-89.80819,30.56815],[-89.80696,30.57311],[-89.80928,30.57934],[-89.81548,30.58502],[-89.80972,30.58467],[-89.8073,30.58752],[-89.81078,30.58654],[-89.81249,30.59221],[-89.81877,30.59288],[-89.82,30.59643],[-89.81387,30.59773],[-89.82249,30.60573],[-89.81729,30.60508],[-89.81392,30.60772],[-89.82339,30.6081],[-89.8208,30.61767],[-89.82189,30.61995],[-89.83071,30.61722],[-89.82998,30.62221],[-89.82367,30.62222],[-89.81972,30.63299],[-89.81371,30.63748],[-89.81579,30.63922],[-89.82295,30.63908],[-89.82374,30.64182],[-89.82065,30.64609],[-89.82574,30.64527],[-89.82497,30.6494],[-89.83054,30.65123],[-89.83321,30.6575],[-89.836,30.65728],[-89.83996,30.65206],[-89.84137,30.66095],[-89.84559,30.65998],[-89.8522,30.66168],[-89.84998,30.66521],[-89.8443,30.66317],[-89.84261,30.66557],[-89.99576,30.66542],[-90.25575,30.71244],[-90.25732,30.7106],[-90.25725,30.7045],[-90.25227,30.70087],[-90.25041,30.69471],[-90.25262,30.68929],[-90.24991,30.68529],[-90.25182,30.68235],[-90.25024,30.68054],[-90.2529,30.67529],[-90.25045,30.67116],[-90.25318,30.66717],[-90.2481,30.66043],[-90.2508,30.65345],[-90.24405,30.64514],[-90.24705,30.63553],[-90.24632,30.63192],[-90.25142,30.62374],[-90.24943,30.62082],[-90.24975,30.61305],[-90.24733,30.61245],[-90.24842,30.60322],[-90.24328,30.59573],[-90.24623,30.58859],[-90.24911,30.58702],[-90.24514,30.58006],[-90.2436,30.36275],[-90.19206,30.31078],[-90.18551,30.28818],[-90.15818,30.22813],[-90.15403,30.20348],[-90.15626,30.18961],[-90.13978,30.17737],[-90.09852,30.16117],[-90.08253,30.1572],[-90.04028,30.15511],[-90.00342,30.16296],[-89.97442,30.17618],[-89.90323,30.19866],[-89.8662,30.19143],[-89.8484,30.19008],[-89.82079,30.18],[-89.79741,30.16076],[-89.77591,30.1594],[-89.75625,30.16904],[-89.74859,30.17588],[-89.74408,30.1775],[-89.73677,30.17467],[-89.7237,30.1629],[-89.7161,30.16081],[-89.69886,30.16739],[-89.69129,30.17479],[-89.68407,30.17513],[-89.66478,30.1668],[-89.65541,30.1593],[-89.62675,30.15548],[-89.60355,30.142],[-89.5934,30.13907],[-89.57843,30.13945],[-89.55316,30.1436],[-89.49497,30.16075],[-89.51477,30.16176],[-89.52794,30.18877],[-89.53484,30.19538],[-89.54484,30.1943],[-89.55592,30.18531],[-89.56611,30.18122],[-89.5744,30.18182],[-89.58499,30.19134],[-89.59657,30.21197],[-89.60207,30.21657],[-89.61105,30.21857],[-89.61574,30.22337],[-89.61683,30.22867],[-89.61404,30.24477],[-89.61642,30.24777],[-89.62675,30.25187],[-89.63161,30.25701],[-89.63105,30.2618],[-89.62531,30.26353],[-89.62537,30.26524],[-89.63232,30.2686],[-89.63129,30.27977],[-89.63753,30.28508],[-89.63821,30.28781],[-89.64578,30.28825],[-89.64751,30.29053],[-89.64043,30.2955],[-89.64034,30.30678],[-89.63112,30.30985],[-89.6265,30.3139],[-89.63396,30.3213],[-89.62971,30.32125],[-89.63034,30.32509],[-89.62881,30.32642],[-89.6327,30.32796],[-89.62965,30.33852],[-89.6363,30.34397],[-89.63693,30.34762],[-89.6413,30.34615],[-89.64299,30.34885],[-89.64539,30.34834],[-89.64562,30.35131],[-89.65152,30.35613],[-89.65365,30.35438],[-89.65729,30.35718],[-89.659,30.36358],[-89.66096,30.36475],[-89.659,30.369],[-89.66225,30.37117],[-89.66008,30.37318],[-89.66431,30.37467],[-89.66474,30.37857],[-89.67006,30.3822],[-89.6791,30.40202],[-89.68371,30.40559],[-89.68266,30.41039],[-89.68416,30.41265],[-89.67977,30.41202],[-89.67777,30.41753],[-89.67989,30.41886],[-89.68113,30.42406],[-89.67954,30.42564],[-89.68031,30.43337],[-89.68413,30.43436],[-89.68504,30.43945],[-89.6826,30.44269],[-89.68256,30.44523],[-89.68501,30.44661],[-89.68349,30.45168],[-89.68611,30.45463],[-89.68974,30.45303],[-89.69003,30.45898],[-89.69564,30.46307],[-89.70567,30.46486],[-89.70429,30.46686],[-89.70543,30.47212],[-89.70885,30.47342],[-89.71032,30.4784],[-89.71477,30.47777],[-89.72015,30.48334],[-89.72372,30.48247],[-89.721,30.48808],[-89.72482,30.49213],[-89.72905,30.49016],[-89.73358,30.49317],[-89.7329,30.49565],[-89.73875,30.49586],[-89.74701,30.49267],[-89.74215,30.49731],[-89.74589,30.49911],[-89.74659,30.50291],[-89.75607,30.49938],[-89.75657,30.49922]]]}},{"type":"Feature","properties":{"GEOID":"22109","STATE":"22","NAME":"Terrebonne Parish","CENTLAT":29.3373994,"CENTLON":-90.8375413,"bbox":[-91.35427,28.98591,-90.37667,29.77779]},"geometry":{"type":"Polygon","coordinates":[[[-90.40959,29.19278],[-90.40958,29.23961],[-90.40273,29.24422],[-90.40364,29.25573],[-90.39716,29.26302],[-90.38955,29.27744],[-90.38384,29.28132],[-90.3831,29.29561],[-90.37667,29.30288],[-90.37825,29.31058],[-90.38647,29.32474],[-90.38208,29.33442],[-90.38231,29.34266],[-90.37964,29.35002],[-90.38554,29.36775],[-90.39843,29.38097],[-90.41856,29.39004],[-90.4267,29.40009],[-90.44808,29.418],[-90.45123,29.42468],[-90.45808,29.43084],[-90.45939,29.43721],[-90.46846,29.45364],[-90.47552,29.45626],[-90.48044,29.46085],[-90.48649,29.46178],[-90.49722,29.47499],[-90.50582,29.47707],[-90.51028,29.48412],[-90.51956,29.49065],[-90.52529,29.49809],[-90.53735,29.50533],[-90.53655,29.5143],[-90.54197,29.51907],[-90.54634,29.52713],[-90.55655,29.5351],[-90.56873,29.5365],[-90.57449,29.5587],[-90.60455,29.57485],[-90.61752,29.59056],[-90.61912,29.59818],[-90.64798,29.60252],[-90.6572,29.60705],[-90.67637,29.63444],[-90.70455,29.66325],[-90.72665,29.67533],[-90.74395,29.67679],[-90.76487,29.69411],[-90.78088,29.72676],[-90.78689,29.73524],[-90.78759,29.74337],[-90.78449,29.74463],[-90.78791,29.74728],[-90.7968,29.74465],[-90.80499,29.74948],[-90.80399,29.763],[-90.80609,29.76333],[-90.80621,29.77093],[-90.80434,29.77051],[-90.80592,29.77442],[-90.81964,29.77779],[-90.8278,29.77583],[-90.82854,29.76432],[-90.84158,29.76002],[-90.84388,29.75346],[-90.84143,29.74638],[-90.88209,29.7459],[-90.88027,29.71791],[-91.0062,29.71509],[-91.08635,29.62327],[-91.0897,29.62213],[-91.09537,29.62361],[-91.10286,29.61874],[-91.11717,29.61752],[-91.11879,29.61035],[-91.12162,29.60799],[-91.13817,29.60966],[-91.13957,29.60272],[-91.15277,29.60311],[-91.15685,29.59591],[-91.16231,29.59282],[-91.17289,29.59743],[-91.17423,29.60741],[-91.17984,29.6094],[-91.20089,29.59865],[-91.21592,29.58674],[-91.2252,29.5763],[-91.22568,29.57155],[-91.22301,29.56371],[-91.22811,29.55707],[-91.23971,29.54843],[-91.26255,29.54408],[-91.26998,29.53795],[-91.27209,29.52812],[-91.2651,29.50969],[-91.27145,29.49563],[-91.27366,29.47943],[-91.2656,29.47267],[-91.26513,29.46809],[-91.26002,29.4621],[-91.25896,29.44441],[-91.24962,29.44432],[-91.24041,29.44029],[-91.23614,29.43628],[-91.2219,29.43621],[-91.21771,29.43285],[-91.212,29.42093],[-91.21846,29.40723],[-91.22008,29.39765],[-91.23549,29.37405],[-91.24911,29.36986],[-91.25738,29.36361],[-91.26824,29.35961],[-91.27628,29.34236],[-91.27665,29.32983],[-91.28089,29.32531],[-91.2909,29.32082],[-91.28965,29.31454],[-91.29368,29.31044],[-91.30701,29.309],[-91.30931,29.3057],[-91.31894,29.30767],[-91.32576,29.30696],[-91.33023,29.30932],[-91.33287,29.30797],[-91.33826,29.30893],[-91.34833,29.31846],[-91.34985,29.32261],[-91.34922,29.3255],[-91.3407,29.32953],[-91.34499,29.33265],[-91.35296,29.3315],[-91.35378,29.32668],[-91.35427,29.23961],[-91.3187,29.20836],[-91.30814,29.20243],[-91.23726,29.17774],[-91.20785,29.17116],[-91.15982,29.16842],[-91.14594,29.16298],[-91.12543,29.14646],[-91.1033,29.13838],[-91.09204,29.13715],[-91.07233,29.13152],[-91.03633,29.12643],[-91.02001,29.12177],[-91.00024,29.11982],[-90.97493,29.12151],[-90.96631,29.11632],[-90.96037,29.11106],[-90.97623,29.11021],[-90.9894,29.10645],[-91.0009,29.10048],[-91.01207,29.09054],[-91.01745,29.08258],[-91.02303,29.0674],[-91.02076,29.04607],[-91.00876,29.0269],[-90.99345,29.01497],[-90.97029,29.00503],[-90.94787,29.00023],[-90.93211,28.99432],[-90.90708,28.99113],[-90.86456,28.99159],[-90.82265,28.98591],[-90.74686,28.98859],[-90.70719,28.99576],[-90.55255,29.03681],[-90.49182,29.0118],[-90.40963,28.99539],[-90.40959,29.17141],[-90.40959,29.19278]]]}},{"type":"Feature","properties":{"GEOID":"22113","STATE":"22","NAME":"Vermilion Parish","CENTLAT":29.8096999,"CENTLON":-92.3064764,"bbox":[-92.73682,29.4815,-91.96813,30.14908]},"geometry":{"type":"Polygon","coordinates":[[[-91.97216,29.83359],[-91.98822,29.93832],[-91.98847,29.9546],[-91.99404,29.9796],[-91.99324,29.98454],[-91.98823,29.98907],[-91.96813,30.03754],[-92.06615,30.07393],[-92.07319,30.08154],[-92.07327,30.08983],[-92.07793,30.10209],[-92.08055,30.10631],[-92.0864,30.10849],[-92.08873,30.11202],[-92.09086,30.11876],[-92.08668,30.1252],[-92.08923,30.12826],[-92.11094,30.12049],[-92.12104,30.12082],[-92.12778,30.11597],[-92.20293,30.14274],[-92.20896,30.1432],[-92.22599,30.13698],[-92.23929,30.14104],[-92.24396,30.14436],[-92.25098,30.13918],[-92.25891,30.1393],[-92.26247,30.14379],[-92.27046,30.14339],[-92.27255,30.14101],[-92.27911,30.14135],[-92.28367,30.14419],[-92.28449,30.14705],[-92.28759,30.14454],[-92.2872,30.14661],[-92.28971,30.14908],[-92.28916,30.14611],[-92.29365,30.14681],[-92.29145,30.14405],[-92.30124,30.12996],[-92.30849,30.1284],[-92.31329,30.1241],[-92.3173,30.1256],[-92.31867,30.12277],[-92.3207,30.12458],[-92.32418,30.12282],[-92.32275,30.11892],[-92.32402,30.1142],[-92.327,30.1136],[-92.33187,30.10838],[-92.33134,30.10228],[-92.33759,30.10071],[-92.34168,30.09626],[-92.34472,30.09561],[-92.34581,30.08639],[-92.35832,30.08124],[-92.36794,30.07193],[-92.38774,30.06098],[-92.39913,30.06059],[-92.40716,30.05399],[-92.41734,30.05251],[-92.42467,30.04913],[-92.43382,30.05324],[-92.43896,30.05199],[-92.44206,30.05518],[-92.46881,30.06178],[-92.47825,30.06647],[-92.48211,30.06376],[-92.48467,30.06479],[-92.48378,30.06782],[-92.49198,30.0758],[-92.49669,30.07502],[-92.5026,30.07921],[-92.50818,30.07848],[-92.50602,30.08066],[-92.51174,30.08284],[-92.51224,30.08513],[-92.51685,30.08545],[-92.51453,30.08758],[-92.51585,30.08875],[-92.52186,30.08784],[-92.51925,30.09004],[-92.52115,30.091],[-92.51912,30.09334],[-92.52183,30.09416],[-92.52049,30.09549],[-92.52199,30.09611],[-92.52589,30.09472],[-92.52932,30.09804],[-92.53119,30.10077],[-92.52705,30.10414],[-92.52918,30.1062],[-92.53092,30.10366],[-92.53266,30.10565],[-92.53422,30.10386],[-92.53619,30.10833],[-92.53978,30.10554],[-92.5451,30.10957],[-92.55309,30.11077],[-92.55391,30.1156],[-92.55792,30.11569],[-92.55968,30.1115],[-92.56498,30.11207],[-92.56577,30.10974],[-92.56741,30.11095],[-92.56999,30.10673],[-92.5687,30.10387],[-92.57521,30.10125],[-92.57769,30.1024],[-92.57877,30.09949],[-92.58262,30.09733],[-92.58649,30.09628],[-92.59319,30.09981],[-92.59815,30.09706],[-92.59991,30.0993],[-92.60097,30.09781],[-92.60481,30.09834],[-92.60616,30.09506],[-92.61088,30.09448],[-92.61093,30.091],[-92.61275,30.09208],[-92.61454,30.08921],[-92.6172,30.08871],[-92.61865,30.08886],[-92.61849,30.09274],[-92.62448,30.08971],[-92.62548,30.09233],[-92.62839,30.09183],[-92.6299,30.08779],[-92.62639,30.08525],[-92.63278,30.0849],[-92.63076,30.07941],[-92.63784,30.07217],[-92.64351,30.07443],[-92.64862,30.07281],[-92.65416,30.07904],[-92.65996,30.06958],[-92.67388,30.07064],[-92.68464,30.0595],[-92.69038,30.05877],[-92.69585,30.0614],[-92.69763,30.05401],[-92.70513,30.05353],[-92.71646,30.04816],[-92.72492,30.04816],[-92.73682,30.03752],[-92.61603,30.03826],[-92.61475,29.81609],[-92.61606,29.5271],[-92.61731,29.5273],[-92.55982,29.51818],[-92.40502,29.50029],[-92.35366,29.48872],[-92.31683,29.48294],[-92.29367,29.4815],[-92.26398,29.48415],[-92.23166,29.49189],[-92.22346,29.49471],[-92.18332,29.51833],[-92.14667,29.53204],[-92.13345,29.53386],[-92.11414,29.53514],[-92.10008,29.53167],[-92.07805,29.53149],[-92.06903,29.52181],[-92.04562,29.50581],[-92.04313,29.52166],[-92.042,29.57981],[-92.03862,29.58505],[-92.02539,29.58539],[-92.0195,29.59297],[-92.00976,29.59839],[-92.00645,29.60816],[-92.00012,29.61337],[-91.97196,29.8323],[-91.97216,29.83359]]]}}]}