{"type":"FeatureCollection","features":[{"type":"Feature","properties":{"v":0.0,"n":1},"geometry":{"type":"Point","coordinates":[-89.22,30.14]}},{"type":"Feature","properties":{"v":662.2,"n":5},"geometry":{"type":"Point","coordinates":[-89.22,30.0]}},{"type":"Feature","properties":{"v":321.5,"n":64},"geometry":{"type":"Point","coordinates":[-89.24,30.0]}},{"type":"Feature","properties":{"v":584.2,"n":47},"geometry":{"type":"Point","coordinates":[-89.24,30.02]}},{"type":"Feature","properties":{"v":0.0,"n":2},"geometry":{"type":"Point","coordinates":[-89.22,30.02]}},{"type":"Feature","properties":{"v":168.8,"n":17},"geometry":{"type":"Point","coordinates":[-89.24,30.04]}},{"type":"Feature","properties":{"v":0.0,"n":1},"geometry":{"type":"Point","coordinates":[-89.2,30.06]}},{"type":"Feature","properties":{"v":137.3,"n":4},"geometry":{"type":"Point","coordinates":[-89.24,30.06]}},{"type":"Feature","properties":{"v":0.0,"n":7},"geometry":{"type":"Point","coordinates":[-89.24,30.1]}},{"type":"Feature","properties":{"v":1.3,"n":9},"geometry":{"type":"Point","coordinates":[-89.22,30.12]}},{"type":"Feature","properties":{"v":4.3,"n":13},"geometry":{"type":"Point","coordinates":[-89.24,30.12]}},{"type":"Feature","properties":{"v":2.0,"n":2},"geometry":{"type":"Point","coordinates":[-89.26,30.1]}},{"type":"Feature","properties":{"v":0.0,"n":2},"geometry":{"type":"Point","coordinates":[-89.26,30.08]}},{"type":"Feature","properties":{"v":180.3,"n":26},"geometry":{"type":"Point","coordinates":[-89.26,30.06]}},{"type":"Feature","properties":{"v":258.0,"n":1},"geometry":{"type":"Point","coordinates":[-89.28,30.06]}},{"type":"Feature","properties":{"v":800.0,"n":28},"geometry":{"type":"Point","coordinates":[-89.3,30.04]}},{"type":"Feature","properties":{"v":1048.5,"n":13},"geometry":{"type":"Point","coordinates":[-89.28,30.04]}},{"type":"Feature","properties":{"v":548.9,"n":64},"geometry":{"type":"Point","coordinates":[-89.26,30.04]}},{"type":"Feature","properties":{"v":276.5,"n":10},"geometry":{"type":"Point","coordinates":[-89.28,30.02]}},{"type":"Feature","properties":{"v":356.5,"n":56},"geometry":{"type":"Point","coordinates":[-89.26,30.02]}},{"type":"Feature","properties":{"v":389.4,"n":111},"geometry":{"type":"Point","coordinates":[-89.26,30.0]}},{"type":"Feature","properties":{"v":830.7,"n":74},"geometry":{"type":"Point","coordinates":[-89.28,30.0]}},{"type":"Feature","properties":{"v":593.4,"n":39},"geometry":{"type":"Point","coordinates":[-89.3,30.0]}},{"type":"Feature","properties":{"v":898.8,"n":60},"geometry":{"type":"Point","coordinates":[-89.32,30.0]}},{"type":"Feature","properties":{"v":1374.6,"n":48},"geometry":{"type":"Point","coordinates":[-89.34,30.0]}},{"type":"Feature","properties":{"v":2287.5,"n":36},"geometry":{"type":"Point","coordinates":[-89.36,30.0]}},{"type":"Feature","properties":{"v":349.4,"n":17},"geometry":{"type":"Point","coordinates":[-89.32,30.04]}},{"type":"Feature","properties":{"v":737.7,"n":10},"geometry":{"type":"Point","coordinates":[-89.42,30.04]}},{"type":"Feature","properties":{"v":624.4,"n":8},"geometry":{"type":"Point","coordinates":[-89.4,30.04]}},{"type":"Feature","properties":{"v":1750.3,"n":27},"geometry":{"type":"Point","coordinates":[-89.38,30.02]}},{"type":"Feature","properties":{"v":1282.7,"n":12},"geometry":{"type":"Point","coordinates":[-89.38,30.0]}},{"type":"Feature","properties":{"v":1156.8,"n":16},"geometry":{"type":"Point","coordinates":[-89.4,30.0]}},{"type":"Feature","properties":{"v":240.4,"n":8},"geometry":{"type":"Point","coordinates":[-89.46,30.0]}},{"type":"Feature","properties":{"v":2.0,"n":8},"geometry":{"type":"Point","coordinates":[-89.48,30.0]}},{"type":"Feature","properties":{"v":0.0,"n":1},"geometry":{"type":"Point","coordinates":[-89.5,30.0]}},{"type":"Feature","properties":{"v":226.7,"n":7},"geometry":{"type":"Point","coordinates":[-89.5,30.02]}},{"type":"Feature","properties":{"v":105.0,"n":2},"geometry":{"type":"Point","coordinates":[-89.52,30.02]}},{"type":"Feature","properties":{"v":591.6,"n":7},"geometry":{"type":"Point","coordinates":[-89.58,30.0]}},{"type":"Feature","properties":{"v":1617.0,"n":2},"geometry":{"type":"Point","coordinates":[-89.6,30.0]}},{"type":"Feature","properties":{"v":40566.0,"n":1},"geometry":{"type":"Point","coordinates":[-90.22,30.0]}},{"type":"Feature","properties":{"v":358.7,"n":139},"geometry":{"type":"Point","coordinates":[-92.06,29.58]}},{"type":"Feature","properties":{"v":443.2,"n":57},"geometry":{"type":"Point","coordinates":[-92.04,29.58]}},{"type":"Feature","properties":{"v":718.9,"n":44},"geometry":{"type":"Point","coordinates":[-92.08,29.58]}},{"type":"Feature","properties":{"v":711.8,"n":32},"geometry":{"type":"Point","coordinates":[-92.12,29.58]}},{"type":"Feature","properties":{"v":745.6,"n":66},"geometry":{"type":"Point","coordinates":[-92.1,29.58]}},{"type":"Feature","properties":{"v":0.0,"n":1},"geometry":{"type":"Point","coordinates":[-92.22,29.52]}},{"type":"Feature","properties":{"v":590.6,"n":28},"geometry":{"type":"Point","coordinates":[-92.1,29.56]}},{"type":"Feature","properties":{"v":946.8,"n":18},"geometry":{"type":"Point","coordinates":[-92.08,29.56]}},{"type":"Feature","properties":{"v":330.8,"n":97},"geometry":{"type":"Point","coordinates":[-92.06,29.56]}},{"type":"Feature","properties":{"v":481.4,"n":57},"geometry":{"type":"Point","coordinates":[-92.04,29.56]}},{"type":"Feature","properties":{"v":333.4,"n":34},"geometry":{"type":"Point","coordinates":[-92.02,29.56]}},{"type":"Feature","properties":{"v":405.3,"n":22},"geometry":{"type":"Point","coordinates":[-92.02,29.54]}},{"type":"Feature","properties":{"v":431.5,"n":16},"geometry":{"type":"Point","coordinates":[-92.02,29.52]}},{"type":"Feature","properties":{"v":5.0,"n":1},"geometry":{"type":"Point","coordinates":[-93.78,29.0]}},{"type":"Feature","properties":{"v":362.2,"n":31},"geometry":{"type":"Point","coordinates":[-94.66,29.5]}},{"type":"Feature","properties":{"v":847.9,"n":32},"geometry":{"type":"Point","coordinates":[-94.68,29.52]}},{"type":"Feature","properties":{"v":1030.7,"n":10},"geometry":{"type":"Point","coordinates":[-94.7,29.52]}},{"type":"Feature","properties":{"v":492.4,"n":7},"geometry":{"type":"Point","coordinates":[-94.74,29.52]}},{"type":"Feature","properties":{"v":980.9,"n":14},"geometry":{"type":"Point","coordinates":[-94.72,29.52]}},{"type":"Feature","properties":{"v":365.3,"n":35},"geometry":{"type":"Point","coordinates":[-94.8,29.54]}},{"type":"Feature","properties":{"v":326.4,"n":17},"geometry":{"type":"Point","coordinates":[-94.78,29.54]}},{"type":"Feature","properties":{"v":284.9,"n":10},"geometry":{"type":"Point","coordinates":[-94.78,29.52]}},{"type":"Feature","properties":{"v":295.5,"n":4},"geometry":{"type":"Point","coordinates":[-94.76,29.52]}},{"type":"Feature","properties":{"v":1238.6,"n":12},"geometry":{"type":"Point","coordinates":[-94.78,29.5]}},{"type":"Feature","properties":{"v":1150.5,"n":2},"geometry":{"type":"Point","coordinates":[-94.8,29.5]}},{"type":"Feature","properties":{"v":403.0,"n":11},"geometry":{"type":"Point","coordinates":[-94.8,29.52]}},{"type":"Feature","properties":{"v":45.5,"n":2},"geometry":{"type":"Point","coordinates":[-94.84,29.5]}},{"type":"Feature","properties":{"v":337.7,"n":55},"geometry":{"type":"Point","coordinates":[-94.86,29.5]}},{"type":"Feature","properties":{"v":517.8,"n":5},"geometry":{"type":"Point","coordinates":[-94.82,29.54]}},{"type":"Feature","properties":{"v":952.0,"n":3},"geometry":{"type":"Point","coordinates":[-94.92,29.54]}},{"type":"Feature","properties":{"v":1247.6,"n":18},"geometry":{"type":"Point","coordinates":[-94.9,29.54]}},{"type":"Feature","properties":{"v":660.4,"n":5},"geometry":{"type":"Point","coordinates":[-94.9,29.52]}},{"type":"Feature","properties":{"v":1004.6,"n":7},"geometry":{"type":"Point","coordinates":[-94.88,29.5]}},{"type":"Feature","properties":{"v":677.5,"n":37},"geometry":{"type":"Point","coordinates":[-94.9,29.5]}},{"type":"Feature","properties":{"v":933.8,"n":5},"geometry":{"type":"Point","coordinates":[-94.92,29.5]}},{"type":"Feature","properties":{"v":320.5,"n":1},"geometry":{"type":"Point","coordinates":[-95.02,29.54]}},{"type":"Feature","properties":{"v":369.8,"n":5},"geometry":{"type":"Point","coordinates":[-95.02,29.52]}},{"type":"Feature","properties":{"v":18.0,"n":6},"geometry":{"type":"Point","coordinates":[-95.04,29.52]}},{"type":"Feature","properties":{"v":1638.3,"n":52},"geometry":{"type":"Point","coordinates":[-94.88,29.48]}},{"type":"Feature","properties":{"v":977.2,"n":69},"geometry":{"type":"Point","coordinates":[-94.9,29.48]}},{"type":"Feature","properties":{"v":954.3,"n":4},"geometry":{"type":"Point","coordinates":[-94.88,29.46]}},{"type":"Feature","properties":{"v":1116.9,"n":23},"geometry":{"type":"Point","coordinates":[-94.9,29.46]}},{"type":"Feature","properties":{"v":478.5,"n":101},"geometry":{"type":"Point","coordinates":[-94.86,29.48]}},{"type":"Feature","properties":{"v":1204.2,"n":39},"geometry":{"type":"Point","coordinates":[-94.84,29.48]}},{"type":"Feature","properties":{"v":13068.7,"n":15},"geometry":{"type":"Point","coordinates":[-94.8,29.48]}},{"type":"Feature","properties":{"v":973.2,"n":13},"geometry":{"type":"Point","coordinates":[-94.76,29.48]}},{"type":"Feature","properties":{"v":1278.4,"n":10},"geometry":{"type":"Point","coordinates":[-94.78,29.48]}},{"type":"Feature","properties":{"v":326.2,"n":40},"geometry":{"type":"Point","coordinates":[-94.7,29.46]}},{"type":"Feature","properties":{"v":6.2,"n":5},"geometry":{"type":"Point","coordinates":[-94.72,29.48]}},{"type":"Feature","properties":{"v":717.9,"n":15},"geometry":{"type":"Point","coordinates":[-94.74,29.48]}},{"type":"Feature","properties":{"v":11.0,"n":2},"geometry":{"type":"Point","coordinates":[-94.7,29.48]}},{"type":"Feature","properties":{"v":359.2,"n":38},"geometry":{"type":"Point","coordinates":[-94.66,29.48]}},{"type":"Feature","properties":{"v":838.2,"n":10},"geometry":{"type":"Point","coordinates":[-94.68,29.48]}},{"type":"Feature","properties":{"v":13.0,"n":1},"geometry":{"type":"Point","coordinates":[-93.76,28.98]}},{"type":"Feature","properties":{"v":0.0,"n":1},"geometry":{"type":"Point","coordinates":[-91.12,29.2]}},{"type":"Feature","properties":{"v":162.9,"n":10},"geometry":{"type":"Point","coordinates":[-91.06,29.2]}},{"type":"Feature","properties":{"v":302.8,"n":4},"geometry":{"type":"Point","coordinates":[-91.02,29.2]}},{"type":"Feature","properties":{"v":303.7,"n":13},"geometry":{"type":"Point","coordinates":[-91.16,29.24]}},{"type":"Feature","properties":{"v":6.0,"n":1},"geometry":{"type":"Point","coordinates":[-91.16,29.28]}},{"type":"Feature","properties":{"v":125.9,"n":16},"geometry":{"type":"Point","coordinates":[-91.16,29.26]}},{"type":"Feature","properties":{"v":102.7,"n":39},"geometry":{"type":"Point","coordinates":[-91.14,29.26]}},{"type":"Feature","properties":{"v":157.0,"n":8},"geometry":{"type":"Point","coordinates":[-91.1,29.26]}},{"type":"Feature","properties":{"v":79.5,"n":27},"geometry":{"type":"Point","coordinates":[-91.12,29.26]}},{"type":"Feature","properties":{"v":95.7,"n":3},"geometry":{"type":"Point","coordinates":[-91.12,29.28]}},{"type":"Feature","properties":{"v":324.0,"n":41},"geometry":{"type":"Point","coordinates":[-91.86,29.4]}},{"type":"Feature","properties":{"v":225.2,"n":27},"geometry":{"type":"Point","coordinates":[-91.84,29.4]}},{"type":"Feature","properties":{"v":293.9,"n":15},"geometry":{"type":"Point","coordinates":[-91.82,29.42]}},{"type":"Feature","properties":{"v":552.4,"n":31},"geometry":{"type":"Point","coordinates":[-91.84,29.42]}},{"type":"Feature","properties":{"v":593.8,"n":69},"geometry":{"type":"Point","coordinates":[-91.86,29.42]}},{"type":"Feature","properties":{"v":700.8,"n":19},"geometry":{"type":"Point","coordinates":[-91.86,29.44]}},{"type":"Feature","properties":{"v":492.5,"n":37},"geometry":{"type":"Point","coordinates":[-91.86,29.46]}},{"type":"Feature","properties":{"v":776.6,"n":70},"geometry":{"type":"Point","coordinates":[-91.84,29.46]}},{"type":"Feature","properties":{"v":5234.2,"n":59},"geometry":{"type":"Point","coordinates":[-91.82,29.46]}},{"type":"Feature","properties":{"v":558.9,"n":89},"geometry":{"type":"Point","coordinates":[-91.84,29.44]}},{"type":"Feature","properties":{"v":354.1,"n":50},"geometry":{"type":"Point","coordinates":[-91.82,29.44]}},{"type":"Feature","properties":{"v":3186.2,"n":28},"geometry":{"type":"Point","coordinates":[-91.82,29.48]}},{"type":"Feature","properties":{"v":873.4,"n":33},"geometry":{"type":"Point","coordinates":[-91.84,29.48]}},{"type":"Feature","properties":{"v":335.3,"n":25},"geometry":{"type":"Point","coordinates":[-91.86,29.48]}},{"type":"Feature","properties":{"v":599.6,"n":54},"geometry":{"type":"Point","coordinates":[-91.92,29.48]}},{"type":"Feature","properties":{"v":568.2,"n":96},"geometry":{"type":"Point","coordinates":[-91.9,29.48]}},{"type":"Feature","properties":{"v":498.9,"n":22},"geometry":{"type":"Point","coordinates":[-91.88,29.48]}},{"type":"Feature","properties":{"v":827.2,"n":31},"geometry":{"type":"Point","coordinates":[-91.9,29.46]}},{"type":"Feature","properties":{"v":496.0,"n":1},"geometry":{"type":"Point","coordinates":[-91.88,29.46]}},{"type":"Feature","properties":{"v":805.8,"n":60},"geometry":{"type":"Point","coordinates":[-91.94,29.48]}},{"type":"Feature","properties":{"v":181.0,"n":32},"geometry":{"type":"Point","coordinates":[-91.98,29.5]}},{"type":"Feature","properties":{"v":574.1,"n":89},"geometry":{"type":"Point","coordinates":[-91.98,29.52]}},{"type":"Feature","properties":{"v":146.7,"n":11},"geometry":{"type":"Point","coordinates":[-91.96,29.52]}},{"type":"Feature","properties":{"v":371.7,"n":68},"geometry":{"type":"Point","coordinates":[-91.94,29.52]}},{"type":"Feature","properties":{"v":810.9,"n":54},"geometry":{"type":"Point","coordinates":[-91.94,29.5]}},{"type":"Feature","properties":{"v":655.5,"n":53},"geometry":{"type":"Point","coordinates":[-91.92,29.5]}},{"type":"Feature","properties":{"v":490.2,"n":67},"geometry":{"type":"Point","coordinates":[-91.9,29.5]}},{"type":"Feature","properties":{"v":409.6,"n":61},"geometry":{"type":"Point","coordinates":[-91.88,29.5]}},{"type":"Feature","properties":{"v":310.7,"n":42},"geometry":{"type":"Point","coordinates":[-91.92,29.52]}},{"type":"Feature","properties":{"v":258.4,"n":16},"geometry":{"type":"Point","coordinates":[-92.0,29.54]}},{"type":"Feature","properties":{"v":50.0,"n":2},"geometry":{"type":"Point","coordinates":[-92.0,29.56]}},{"type":"Feature","properties":{"v":466.8,"n":13},"geometry":{"type":"Point","coordinates":[-91.86,29.5]}},{"type":"Feature","properties":{"v":24.0,"n":1},"geometry":{"type":"Point","coordinates":[-91.78,29.86]}},{"type":"Feature","properties":{"v":319.5,"n":15},"geometry":{"type":"Point","coordinates":[-90.04,29.48]}},{"type":"Feature","properties":{"v":103.1,"n":7},"geometry":{"type":"Point","coordinates":[-90.06,29.48]}},{"type":"Feature","properties":{"v":649.9,"n":34},"geometry":{"type":"Point","coordinates":[-90.02,29.48]}},{"type":"Feature","properties":{"v":193.0,"n":1},"geometry":{"type":"Point","coordinates":[-90.02,29.46]}},{"type":"Feature","properties":{"v":487.0,"n":1},"geometry":{"type":"Point","coordinates":[-90.04,29.44]}},{"type":"Feature","properties":{"v":828.8,"n":16},"geometry":{"type":"Point","coordinates":[-90.06,29.44]}},{"type":"Feature","properties":{"v":800.4,"n":36},"geometry":{"type":"Point","coordinates":[-90.06,29.46]}},{"type":"Feature","properties":{"v":815.3,"n":16},"geometry":{"type":"Point","coordinates":[-90.04,29.46]}},{"type":"Feature","properties":{"v":93.2,"n":13},"geometry":{"type":"Point","coordinates":[-90.08,29.46]}},{"type":"Feature","properties":{"v":500.9,"n":106},"geometry":{"type":"Point","coordinates":[-90.16,29.38]}},{"type":"Feature","properties":{"v":258.6,"n":7},"geometry":{"type":"Point","coordinates":[-90.14,29.38]}},{"type":"Feature","properties":{"v":138.8,"n":4},"geometry":{"type":"Point","coordinates":[-90.12,29.38]}},{"type":"Feature","properties":{"v":12.0,"n":2},"geometry":{"type":"Point","coordinates":[-90.1,29.38]}},{"type":"Feature","properties":{"v":779.0,"n":23},"geometry":{"type":"Point","coordinates":[-90.06,29.42]}},{"type":"Feature","properties":{"v":986.0,"n":4},"geometry":{"type":"Point","coordinates":[-90.02,29.42]}},{"type":"Feature","properties":{"v":0.0,"n":1},"geometry":{"type":"Point","coordinates":[-90.02,29.4]}},{"type":"Feature","properties":{"v":42.2,"n":10},"geometry":{"type":"Point","coordinates":[-90.06,29.38]}},{"type":"Feature","properties":{"v":32.4,"n":12},"geometry":{"type":"Point","coordinates":[-90.04,29.38]}},{"type":"Feature","properties":{"v":12.2,"n":10},"geometry":{"type":"Point","coordinates":[-90.02,29.38]}},{"type":"Feature","properties":{"v":52.3,"n":15},"geometry":{"type":"Point","coordinates":[-90.08,29.36]}},{"type":"Feature","properties":{"v":38.0,"n":7},"geometry":{"type":"Point","coordinates":[-90.12,29.36]}},{"type":"Feature","properties":{"v":45.3,"n":7},"geometry":{"type":"Point","coordinates":[-90.1,29.36]}},{"type":"Feature","properties":{"v":210.0,"n":3},"geometry":{"type":"Point","coordinates":[-90.1,29.34]}},{"type":"Feature","properties":{"v":0.0,"n":1},"geometry":{"type":"Point","coordinates":[-90.12,29.34]}},{"type":"Feature","properties":{"v":1208.5,"n":78},"geometry":{"type":"Point","coordinates":[-90.18,29.3]}},{"type":"Feature","properties":{"v":1038.7,"n":73},"geometry":{"type":"Point","coordinates":[-90.18,29.28]}},{"type":"Feature","properties":{"v":1226.4,"n":80},"geometry":{"type":"Point","coordinates":[-90.2,29.28]}},{"type":"Feature","properties":{"v":7034.8,"n":4},"geometry":{"type":"Point","coordinates":[-90.2,29.26]}},{"type":"Feature","properties":{"v":129.9,"n":103},"geometry":{"type":"Point","coordinates":[-90.22,29.28]}},{"type":"Feature","properties":{"v":1353.5,"n":124},"geometry":{"type":"Point","coordinates":[-90.24,29.28]}},{"type":"Feature","properties":{"v":1554.5,"n":72},"geometry":{"type":"Point","coordinates":[-90.2,29.3]}},{"type":"Feature","properties":{"v":1582.6,"n":69},"geometry":{"type":"Point","coordinates":[-90.22,29.3]}},{"type":"Feature","properties":{"v":868.6,"n":212},"geometry":{"type":"Point","coordinates":[-90.24,29.3]}},{"type":"Feature","properties":{"v":57.5,"n":11},"geometry":{"type":"Point","coordinates":[-90.14,29.34]}},{"type":"Feature","properties":{"v":0.0,"n":2},"geometry":{"type":"Point","coordinates":[-90.14,29.36]}},{"type":"Feature","properties":{"v":915.5,"n":11},"geometry":{"type":"Point","coordinates":[-90.16,29.36]}},{"type":"Feature","properties":{"v":198.7,"n":21},"geometry":{"type":"Point","coordinates":[-90.32,29.36]}},{"type":"Feature","properties":{"v":237.8,"n":17},"geometry":{"type":"Point","coordinates":[-90.36,29.36]}},{"type":"Feature","properties":{"v":394.5,"n":6},"geometry":{"type":"Point","coordinates":[-90.32,29.34]}},{"type":"Feature","properties":{"v":621.3,"n":27},"geometry":{"type":"Point","coordinates":[-90.34,29.34]}},{"type":"Feature","properties":{"v":1003.0,"n":31},"geometry":{"type":"Point","coordinates":[-90.36,29.34]}},{"type":"Feature","properties":{"v":586.5,"n":4},"geometry":{"type":"Point","coordinates":[-90.36,29.32]}},{"type":"Feature","properties":{"v":397.4,"n":41},"geometry":{"type":"Point","coordinates":[-90.34,29.32]}},{"type":"Feature","properties":{"v":143.0,"n":7},"geometry":{"type":"Point","coordinates":[-90.3,29.32]}},{"type":"Feature","properties":{"v":914.9,"n":126},"geometry":{"type":"Point","coordinates":[-90.26,29.3]}},{"type":"Feature","properties":{"v":896.7,"n":48},"geometry":{"type":"Point","coordinates":[-90.26,29.28]}},{"type":"Feature","properties":{"v":160.0,"n":72},"geometry":{"type":"Point","coordinates":[-90.28,29.26]}},{"type":"Feature","properties":{"v":37.3,"n":16},"geometry":{"type":"Point","coordinates":[-90.3,29.26]}},{"type":"Feature","properties":{"v":69.0,"n":3},"geometry":{"type":"Point","coordinates":[-90.3,29.28]}},{"type":"Feature","properties":{"v":100.0,"n":5},"geometry":{"type":"Point","coordinates":[-90.32,29.28]}},{"type":"Feature","properties":{"v":484.0,"n":5},"geometry":{"type":"Point","coordinates":[-90.4,29.3]}},{"type":"Feature","properties":{"v":217.2,"n":12},"geometry":{"type":"Point","coordinates":[-90.4,29.28]}},{"type":"Feature","properties":{"v":521.6,"n":7},"geometry":{"type":"Point","coordinates":[-90.4,29.26]}},{"type":"Feature","properties":{"v":324.8,"n":10},"geometry":{"type":"Point","coordinates":[-90.42,29.26]}},{"type":"Feature","properties":{"v":290.9,"n":13},"geometry":{"type":"Point","coordinates":[-90.44,29.26]}},{"type":"Feature","properties":{"v":1924.4,"n":7},"geometry":{"type":"Point","coordinates":[-90.48,29.28]}},{"type":"Feature","properties":{"v":679.3,"n":4},"geometry":{"type":"Point","coordinates":[-90.5,29.28]}},{"type":"Feature","properties":{"v":414.7,"n":3},"geometry":{"type":"Point","coordinates":[-90.5,29.3]}},{"type":"Feature","properties":{"v":1721.0,"n":6},"geometry":{"type":"Point","coordinates":[-90.5,29.32]}},{"type":"Feature","properties":{"v":985.8,"n":4},"geometry":{"type":"Point","coordinates":[-90.48,29.32]}},{"type":"Feature","properties":{"v":526.4,"n":19},"geometry":{"type":"Point","coordinates":[-90.5,29.34]}},{"type":"Feature","properties":{"v":1087.4,"n":23},"geometry":{"type":"Point","coordinates":[-90.48,29.34]}},{"type":"Feature","properties":{"v":225.7,"n":12},"geometry":{"type":"Point","coordinates":[-90.46,29.34]}},{"type":"Feature","properties":{"v":394.2,"n":11},"geometry":{"type":"Point","coordinates":[-90.44,29.34]}},{"type":"Feature","properties":{"v":361.6,"n":15},"geometry":{"type":"Point","coordinates":[-90.44,29.32]}},{"type":"Feature","properties":{"v":962.7,"n":3},"geometry":{"type":"Point","coordinates":[-90.42,29.32]}},{"type":"Feature","properties":{"v":565.8,"n":8},"geometry":{"type":"Point","coordinates":[-90.4,29.32]}},{"type":"Feature","properties":{"v":116.2,"n":43},"geometry":{"type":"Point","coordinates":[-90.38,29.34]}},{"type":"Feature","properties":{"v":318.7,"n":22},"geometry":{"type":"Point","coordinates":[-90.4,29.34]}},{"type":"Feature","properties":{"v":5.5,"n":2},"geometry":{"type":"Point","coordinates":[-90.42,29.34]}},{"type":"Feature","properties":{"v":215.4,"n":16},"geometry":{"type":"Point","coordinates":[-90.4,29.36]}},{"type":"Feature","properties":{"v":244.1,"n":48},"geometry":{"type":"Point","coordinates":[-90.38,29.36]}},{"type":"Feature","properties":{"v":148.4,"n":82},"geometry":{"type":"Point","coordinates":[-90.42,29.36]}},{"type":"Feature","properties":{"v":138.1,"n":7},"geometry":{"type":"Point","coordinates":[-90.46,29.36]}},{"type":"Feature","properties":{"v":369.0,"n":6},"geometry":{"type":"Point","coordinates":[-90.44,29.36]}},{"type":"Feature","properties":{"v":1131.9,"n":26},"geometry":{"type":"Point","coordinates":[-90.5,29.36]}},{"type":"Feature","properties":{"v":915.5,"n":31},"geometry":{"type":"Point","coordinates":[-90.48,29.36]}},{"type":"Feature","properties":{"v":716.5,"n":18},"geometry":{"type":"Point","coordinates":[-90.5,29.38]}},{"type":"Feature","properties":{"v":779.4,"n":36},"geometry":{"type":"Point","coordinates":[-90.48,29.38]}},{"type":"Feature","properties":{"v":565.1,"n":112},"geometry":{"type":"Point","coordinates":[-90.46,29.38]}},{"type":"Feature","properties":{"v":408.8,"n":105},"geometry":{"type":"Point","coordinates":[-90.44,29.38]}},{"type":"Feature","properties":{"v":559.5,"n":168},"geometry":{"type":"Point","coordinates":[-90.44,29.4]}},{"type":"Feature","properties":{"v":446.8,"n":184},"geometry":{"type":"Point","coordinates":[-90.46,29.4]}},{"type":"Feature","properties":{"v":247.2,"n":19},"geometry":{"type":"Point","coordinates":[-90.48,29.4]}},{"type":"Feature","properties":{"v":218.5,"n":4},"geometry":{"type":"Point","coordinates":[-90.5,29.4]}},{"type":"Feature","properties":{"v":617.0,"n":2},"geometry":{"type":"Point","coordinates":[-90.5,29.42]}},{"type":"Feature","properties":{"v":377.1,"n":56},"geometry":{"type":"Point","coordinates":[-90.44,29.42]}},{"type":"Feature","properties":{"v":439.3,"n":66},"geometry":{"type":"Point","coordinates":[-90.46,29.42]}},{"type":"Feature","properties":{"v":87.5,"n":2},"geometry":{"type":"Point","coordinates":[-90.42,29.4]}},{"type":"Feature","properties":{"v":524.9,"n":16},"geometry":{"type":"Point","coordinates":[-90.42,29.38]}},{"type":"Feature","properties":{"v":201.6,"n":20},"geometry":{"type":"Point","coordinates":[-90.4,29.38]}},{"type":"Feature","properties":{"v":319.3,"n":35},"geometry":{"type":"Point","coordinates":[-90.38,29.38]}},{"type":"Feature","properties":{"v":36.5,"n":19},"geometry":{"type":"Point","coordinates":[-90.32,29.4]}},{"type":"Feature","properties":{"v":65.2,"n":120},"geometry":{"type":"Point","coordinates":[-90.32,29.38]}},{"type":"Feature","properties":{"v":0.0,"n":28},"geometry":{"type":"Point","coordinates":[-90.3,29.38]}},{"type":"Feature","properties":{"v":252.7,"n":3},"geometry":{"type":"Point","coordinates":[-90.54,29.42]}},{"type":"Feature","properties":{"v":183.4,"n":7},"geometry":{"type":"Point","coordinates":[-90.52,29.42]}},{"type":"Feature","properties":{"v":70.5,"n":4},"geometry":{"type":"Point","coordinates":[-90.52,29.4]}},{"type":"Feature","properties":{"v":1299.7,"n":3},"geometry":{"type":"Point","coordinates":[-90.52,29.38]}},{"type":"Feature","properties":{"v":778.6,"n":47},"geometry":{"type":"Point","coordinates":[-90.54,29.38]}},{"type":"Feature","properties":{"v":1112.4,"n":38},"geometry":{"type":"Point","coordinates":[-90.56,29.38]}},{"type":"Feature","properties":{"v":298.8,"n":21},"geometry":{"type":"Point","coordinates":[-90.54,29.4]}},{"type":"Feature","properties":{"v":147.0,"n":2},"geometry":{"type":"Point","coordinates":[-90.64,29.38]}},{"type":"Feature","properties":{"v":668.6,"n":17},"geometry":{"type":"Point","coordinates":[-90.66,29.38]}},{"type":"Feature","properties":{"v":825.4,"n":10},"geometry":{"type":"Point","coordinates":[-90.68,29.38]}},{"type":"Feature","properties":{"v":208.5,"n":4},"geometry":{"type":"Point","coordinates":[-90.94,29.3]}},{"type":"Feature","properties":{"v":402.5,"n":11},"geometry":{"type":"Point","coordinates":[-90.96,29.3]}},{"type":"Feature","properties":{"v":254.8,"n":10},"geometry":{"type":"Point","coordinates":[-90.98,29.3]}},{"type":"Feature","properties":{"v":252.0,"n":38},"geometry":{"type":"Point","coordinates":[-90.94,29.28]}},{"type":"Feature","properties":{"v":257.2,"n":26},"geometry":{"type":"Point","coordinates":[-90.96,29.28]}},{"type":"Feature","properties":{"v":473.7,"n":12},"geometry":{"type":"Point","coordinates":[-90.98,29.28]}},{"type":"Feature","properties":{"v":219.8,"n":34},"geometry":{"type":"Point","coordinates":[-90.98,29.26]}},{"type":"Feature","properties":{"v":342.5,"n":2},"geometry":{"type":"Point","coordinates":[-91.0,29.26]}},{"type":"Feature","properties":{"v":354.0,"n":5},"geometry":{"type":"Point","coordinates":[-90.96,29.26]}},{"type":"Feature","properties":{"v":370.2,"n":11},"geometry":{"type":"Point","coordinates":[-90.94,29.26]}},{"type":"Feature","properties":{"v":176.3,"n":4},"geometry":{"type":"Point","coordinates":[-90.9,29.28]}},{"type":"Feature","properties":{"v":60.3,"n":8},"geometry":{"type":"Point","coordinates":[-90.88,29.28]}},{"type":"Feature","properties":{"v":237.1,"n":14},"geometry":{"type":"Point","coordinates":[-90.88,29.26]}},{"type":"Feature","properties":{"v":427.1,"n":54},"geometry":{"type":"Point","coordinates":[-90.86,29.26]}},{"type":"Feature","properties":{"v":584.4,"n":50},"geometry":{"type":"Point","coordinates":[-90.84,29.26]}},{"type":"Feature","properties":{"v":832.0,"n":2},"geometry":{"type":"Point","coordinates":[-90.82,29.28]}},{"type":"Feature","properties":{"v":328.0,"n":30},"geometry":{"type":"Point","coordinates":[-90.84,29.28]}},{"type":"Feature","properties":{"v":45.8,"n":4},"geometry":{"type":"Point","coordinates":[-90.86,29.28]}},{"type":"Feature","properties":{"v":696.9,"n":31},"geometry":{"type":"Point","coordinates":[-90.8,29.26]}},{"type":"Feature","properties":{"v":774.2,"n":16},"geometry":{"type":"Point","coordinates":[-90.78,29.26]}},{"type":"Feature","properties":{"v":428.4,"n":25},"geometry":{"type":"Point","coordinates":[-90.76,29.26]}},{"type":"Feature","properties":{"v":382.7,"n":42},"geometry":{"type":"Point","coordinates":[-90.72,29.26]}},{"type":"Feature","properties":{"v":351.8,"n":132},"geometry":{"type":"Point","coordinates":[-90.74,29.26]}},{"type":"Feature","properties":{"v":240.4,"n":7},"geometry":{"type":"Point","coordinates":[-90.74,29.28]}},{"type":"Feature","properties":{"v":296.0,"n":64},"geometry":{"type":"Point","coordinates":[-90.7,29.28]}},{"type":"Feature","properties":{"v":115.9,"n":32},"geometry":{"type":"Point","coordinates":[-90.7,29.26]}},{"type":"Feature","properties":{"v":175.5,"n":185},"geometry":{"type":"Point","coordinates":[-90.68,29.26]}},{"type":"Feature","properties":{"v":335.2,"n":22},"geometry":{"type":"Point","coordinates":[-90.66,29.26]}},{"type":"Feature","properties":{"v":228.9,"n":7},"geometry":{"type":"Point","coordinates":[-90.64,29.26]}},{"type":"Feature","properties":{"v":184.3,"n":32},"geometry":{"type":"Point","coordinates":[-90.64,29.28]}},{"type":"Feature","properties":{"v":187.8,"n":12},"geometry":{"type":"Point","coordinates":[-90.66,29.28]}},{"type":"Feature","properties":{"v":383.7,"n":192},"geometry":{"type":"Point","coordinates":[-90.68,29.28]}},{"type":"Feature","properties":{"v":623.6,"n":94},"geometry":{"type":"Point","coordinates":[-90.64,29.3]}},{"type":"Feature","properties":{"v":323.6,"n":58},"geometry":{"type":"Point","coordinates":[-90.68,29.3]}},{"type":"Feature","properties":{"v":465.0,"n":4},"geometry":{"type":"Point","coordinates":[-90.72,29.3]}},{"type":"Feature","properties":{"v":609.6,"n":39},"geometry":{"type":"Point","coordinates":[-90.68,29.36]}},{"type":"Feature","properties":{"v":480.6,"n":61},"geometry":{"type":"Point","coordinates":[-90.66,29.36]}},{"type":"Feature","properties":{"v":633.7,"n":3},"geometry":{"type":"Point","coordinates":[-90.64,29.36]}},{"type":"Feature","properties":{"v":353.8,"n":4},"geometry":{"type":"Point","coordinates":[-90.64,29.34]}},{"type":"Feature","properties":{"v":461.8,"n":77},"geometry":{"type":"Point","coordinates":[-90.66,29.34]}},{"type":"Feature","properties":{"v":476.7,"n":30},"geometry":{"type":"Point","coordinates":[-90.68,29.34]}},{"type":"Feature","properties":{"v":558.6,"n":19},"geometry":{"type":"Point","coordinates":[-90.68,29.32]}},{"type":"Feature","properties":{"v":607.0,"n":3},"geometry":{"type":"Point","coordinates":[-90.66,29.32]}},{"type":"Feature","properties":{"v":689.3,"n":44},"geometry":{"type":"Point","coordinates":[-90.64,29.32]}},{"type":"Feature","properties":{"v":644.3,"n":78},"geometry":{"type":"Point","coordinates":[-90.62,29.32]}},{"type":"Feature","properties":{"v":549.1,"n":189},"geometry":{"type":"Point","coordinates":[-90.6,29.32]}},{"type":"Feature","properties":{"v":510.1,"n":81},"geometry":{"type":"Point","coordinates":[-90.58,29.32]}},{"type":"Feature","properties":{"v":106.0,"n":45},"geometry":{"type":"Point","coordinates":[-90.58,29.34]}},{"type":"Feature","properties":{"v":142.5,"n":51},"geometry":{"type":"Point","coordinates":[-90.6,29.34]}},{"type":"Feature","properties":{"v":750.2,"n":6},"geometry":{"type":"Point","coordinates":[-90.62,29.34]}},{"type":"Feature","properties":{"v":244.7,"n":9},"geometry":{"type":"Point","coordinates":[-90.62,29.36]}},{"type":"Feature","properties":{"v":403.9,"n":21},"geometry":{"type":"Point","coordinates":[-90.6,29.36]}},{"type":"Feature","properties":{"v":591.5,"n":22},"geometry":{"type":"Point","coordinates":[-90.58,29.36]}},{"type":"Feature","properties":{"v":633.7,"n":61},"geometry":{"type":"Point","coordinates":[-90.56,29.36]}},{"type":"Feature","properties":{"v":501.6,"n":31},"geometry":{"type":"Point","coordinates":[-90.54,29.36]}},{"type":"Feature","properties":{"v":867.1,"n":38},"geometry":{"type":"Point","coordinates":[-90.52,29.36]}},{"type":"Feature","properties":{"v":434.3,"n":12},"geometry":{"type":"Point","coordinates":[-90.52,29.34]}},{"type":"Feature","properties":{"v":589.1,"n":45},"geometry":{"type":"Point","coordinates":[-90.54,29.34]}},{"type":"Feature","properties":{"v":271.4,"n":17},"geometry":{"type":"Point","coordinates":[-90.56,29.34]}},{"type":"Feature","properties":{"v":142.9,"n":26},"geometry":{"type":"Point","coordinates":[-90.56,29.32]}},{"type":"Feature","properties":{"v":414.7,"n":65},"geometry":{"type":"Point","coordinates":[-90.54,29.32]}},{"type":"Feature","properties":{"v":273.5,"n":11},"geometry":{"type":"Point","coordinates":[-90.56,29.3]}},{"type":"Feature","properties":{"v":378.0,"n":2},"geometry":{"type":"Point","coordinates":[-90.54,29.3]}},{"type":"Feature","properties":{"v":4.0,"n":1},"geometry":{"type":"Point","coordinates":[-90.58,29.3]}},{"type":"Feature","properties":{"v":448.7,"n":161},"geometry":{"type":"Point","coordinates":[-90.62,29.3]}},{"type":"Feature","properties":{"v":374.0,"n":27},"geometry":{"type":"Point","coordinates":[-90.6,29.3]}},{"type":"Feature","properties":{"v":513.7,"n":138},"geometry":{"type":"Point","coordinates":[-90.62,29.28]}},{"type":"Feature","properties":{"v":0.0,"n":2},"geometry":{"type":"Point","coordinates":[-90.6,29.26]}},{"type":"Feature","properties":{"v":419.2,"n":15},"geometry":{"type":"Point","coordinates":[-90.62,29.26]}},{"type":"Feature","properties":{"v":351.0,"n":2},"geometry":{"type":"Point","coordinates":[-90.54,29.28]}},{"type":"Feature","properties":{"v":0.0,"n":2},"geometry":{"type":"Point","coordinates":[-90.56,29.22]}},{"type":"Feature","properties":{"v":0.0,"n":1},"geometry":{"type":"Point","coordinates":[-90.58,29.24]}},{"type":"Feature","properties":{"v":10.8,"n":4},"geometry":{"type":"Point","coordinates":[-90.62,29.24]}},{"type":"Feature","properties":{"v":91.8,"n":6},"geometry":{"type":"Point","coordinates":[-90.6,29.24]}},{"type":"Feature","properties":{"v":961.5,"n":2},"geometry":{"type":"Point","coordinates":[-90.62,29.22]}},{"type":"Feature","properties":{"v":0.0,"n":1},"geometry":{"type":"Point","coordinates":[-90.58,29.22]}},{"type":"Feature","properties":{"v":333.4,"n":14},"geometry":{"type":"Point","coordinates":[-90.62,29.2]}},{"type":"Feature","properties":{"v":13.3,"n":3},"geometry":{"type":"Point","coordinates":[-90.66,29.18]}},{"type":"Feature","properties":{"v":84.0,"n":2},"geometry":{"type":"Point","coordinates":[-90.66,29.14]}},{"type":"Feature","properties":{"v":103.5,"n":2},"geometry":{"type":"Point","coordinates":[-90.68,29.14]}},{"type":"Feature","properties":{"v":30409.5,"n":2},"geometry":{"type":"Point","coordinates":[-90.72,29.14]}},{"type":"Feature","properties":{"v":2144.0,"n":72},"geometry":{"type":"Point","coordinates":[-90.74,29.14]}},{"type":"Feature","properties":{"v":1468.2,"n":5},"geometry":{"type":"Point","coordinates":[-90.74,29.16]}},{"type":"Feature","properties":{"v":4547.7,"n":23},"geometry":{"type":"Point","coordinates":[-90.72,29.16]}},{"type":"Feature","properties":{"v":888.7,"n":176},"geometry":{"type":"Point","coordinates":[-90.7,29.18]}},{"type":"Feature","properties":{"v":1311.2,"n":82},"geometry":{"type":"Point","coordinates":[-90.72,29.18]}},{"type":"Feature","properties":{"v":363.3,"n":12},"geometry":{"type":"Point","coordinates":[-90.74,29.18]}},{"type":"Feature","properties":{"v":642.6,"n":483},"geometry":{"type":"Point","coordinates":[-90.72,29.2]}},{"type":"Feature","properties":{"v":862.9,"n":296},"geometry":{"type":"Point","coordinates":[-90.74,29.2]}},{"type":"Feature","properties":{"v":1199.6,"n":475},"geometry":{"type":"Point","coordinates":[-90.7,29.2]}},{"type":"Feature","properties":{"v":469.1,"n":35},"geometry":{"type":"Point","coordinates":[-90.68,29.2]}},{"type":"Feature","properties":{"v":34.3,"n":10},"geometry":{"type":"Point","coordinates":[-90.66,29.2]}},{"type":"Feature","properties":{"v":2.0,"n":3},"geometry":{"type":"Point","coordinates":[-90.64,29.2]}},{"type":"Feature","properties":{"v":959.3,"n":334},"geometry":{"type":"Point","coordinates":[-90.68,29.22]}},{"type":"Feature","properties":{"v":611.2,"n":278},"geometry":{"type":"Point","coordinates":[-90.66,29.22]}},{"type":"Feature","properties":{"v":267.1,"n":38},"geometry":{"type":"Point","coordinates":[-90.64,29.22]}},{"type":"Feature","properties":{"v":277.2,"n":17},"geometry":{"type":"Point","coordinates":[-90.64,29.24]}},{"type":"Feature","properties":{"v":322.6,"n":186},"geometry":{"type":"Point","coordinates":[-90.66,29.24]}},{"type":"Feature","properties":{"v":778.2,"n":135},"geometry":{"type":"Point","coordinates":[-90.68,29.24]}},{"type":"Feature","properties":{"v":196.2,"n":62},"geometry":{"type":"Point","coordinates":[-90.7,29.24]}},{"type":"Feature","properties":{"v":895.8,"n":216},"geometry":{"type":"Point","coordinates":[-90.7,29.22]}},{"type":"Feature","properties":{"v":378.5,"n":134},"geometry":{"type":"Point","coordinates":[-90.72,29.22]}},{"type":"Feature","properties":{"v":400.8,"n":28},"geometry":{"type":"Point","coordinates":[-90.74,29.22]}},{"type":"Feature","properties":{"v":293.0,"n":107},"geometry":{"type":"Point","coordinates":[-90.74,29.24]}},{"type":"Feature","properties":{"v":526.9,"n":114},"geometry":{"type":"Point","coordinates":[-90.72,29.24]}},{"type":"Feature","properties":{"v":350.8,"n":119},"geometry":{"type":"Point","coordinates":[-90.76,29.24]}},{"type":"Feature","properties":{"v":923.9,"n":433},"geometry":{"type":"Point","coordinates":[-90.78,29.24]}},{"type":"Feature","properties":{"v":664.5,"n":44},"geometry":{"type":"Point","coordinates":[-90.8,29.24]}},{"type":"Feature","properties":{"v":555.7,"n":385},"geometry":{"type":"Point","coordinates":[-90.8,29.22]}},{"type":"Feature","properties":{"v":647.9,"n":87},"geometry":{"type":"Point","coordinates":[-90.78,29.22]}},{"type":"Feature","properties":{"v":381.6,"n":28},"geometry":{"type":"Point","coordinates":[-90.76,29.22]}},{"type":"Feature","properties":{"v":624.1,"n":230},"geometry":{"type":"Point","coordinates":[-90.76,29.2]}},{"type":"Feature","properties":{"v":1028.7,"n":155},"geometry":{"type":"Point","coordinates":[-90.78,29.2]}},{"type":"Feature","properties":{"v":260.2,"n":47},"geometry":{"type":"Point","coordinates":[-90.8,29.2]}},{"type":"Feature","properties":{"v":334.5,"n":60},"geometry":{"type":"Point","coordinates":[-90.82,29.2]}},{"type":"Feature","properties":{"v":298.4,"n":324},"geometry":{"type":"Point","coordinates":[-90.84,29.2]}},{"type":"Feature","properties":{"v":1224.2,"n":121},"geometry":{"type":"Point","coordinates":[-90.86,29.2]}},{"type":"Feature","properties":{"v":911.8,"n":129},"geometry":{"type":"Point","coordinates":[-90.86,29.22]}},{"type":"Feature","properties":{"v":2249.0,"n":65},"geometry":{"type":"Point","coordinates":[-90.84,29.22]}},{"type":"Feature","properties":{"v":185.8,"n":37},"geometry":{"type":"Point","coordinates":[-90.82,29.22]}},{"type":"Feature","properties":{"v":269.0,"n":105},"geometry":{"type":"Point","coordinates":[-90.84,29.24]}},{"type":"Feature","properties":{"v":375.1,"n":17},"geometry":{"type":"Point","coordinates":[-90.82,29.24]}},{"type":"Feature","properties":{"v":271.3,"n":43},"geometry":{"type":"Point","coordinates":[-90.86,29.24]}},{"type":"Feature","properties":{"v":576.5,"n":36},"geometry":{"type":"Point","coordinates":[-90.88,29.24]}},{"type":"Feature","properties":{"v":286.7,"n":14},"geometry":{"type":"Point","coordinates":[-90.88,29.22]}},{"type":"Feature","properties":{"v":102.3,"n":8},"geometry":{"type":"Point","coordinates":[-90.9,29.22]}},{"type":"Feature","properties":{"v":93.0,"n":29},"geometry":{"type":"Point","coordinates":[-91.0,29.24]}},{"type":"Feature","properties":{"v":134.4,"n":22},"geometry":{"type":"Point","coordinates":[-90.98,29.24]}},{"type":"Feature","properties":{"v":264.8,"n":5},"geometry":{"type":"Point","coordinates":[-90.96,29.22]}},{"type":"Feature","properties":{"v":234.3,"n":8},"geometry":{"type":"Point","coordinates":[-91.0,29.2]}},{"type":"Feature","properties":{"v":803.9,"n":38},"geometry":{"type":"Point","coordinates":[-90.88,29.2]}},{"type":"Feature","properties":{"v":196.7,"n":15},"geometry":{"type":"Point","coordinates":[-90.92,29.16]}},{"type":"Feature","properties":{"v":808.4,"n":5},"geometry":{"type":"Point","coordinates":[-90.92,29.18]}},{"type":"Feature","properties":{"v":412.6,"n":45},"geometry":{"type":"Point","coordinates":[-90.94,29.18]}},{"type":"Feature","properties":{"v":423.3,"n":15},"geometry":{"type":"Point","coordinates":[-90.96,29.18]}},{"type":"Feature","properties":{"v":420.6,"n":10},"geometry":{"type":"Point","coordinates":[-91.0,29.18]}},{"type":"Feature","properties":{"v":37.5,"n":4},"geometry":{"type":"Point","coordinates":[-90.96,29.16]}},{"type":"Feature","properties":{"v":761.6,"n":157},"geometry":{"type":"Point","coordinates":[-90.82,29.14]}},{"type":"Feature","properties":{"v":679.4,"n":9},"geometry":{"type":"Point","coordinates":[-90.84,29.14]}},{"type":"Feature","properties":{"v":292.4,"n":22},"geometry":{"type":"Point","coordinates":[-90.86,29.18]}},{"type":"Feature","properties":{"v":280.9,"n":74},"geometry":{"type":"Point","coordinates":[-90.84,29.18]}},{"type":"Feature","properties":{"v":301.3,"n":8},"geometry":{"type":"Point","coordinates":[-90.82,29.18]}},{"type":"Feature","properties":{"v":114.5,"n":25},"geometry":{"type":"Point","coordinates":[-90.84,29.16]}},{"type":"Feature","properties":{"v":240.5,"n":4},"geometry":{"type":"Point","coordinates":[-90.82,29.16]}},{"type":"Feature","properties":{"v":4.0,"n":3},"geometry":{"type":"Point","coordinates":[-90.8,29.16]}},{"type":"Feature","properties":{"v":89.9,"n":34},"geometry":{"type":"Point","coordinates":[-90.8,29.18]}},{"type":"Feature","properties":{"v":513.3,"n":35},"geometry":{"type":"Point","coordinates":[-90.78,29.18]}},{"type":"Feature","properties":{"v":985.8,"n":35},"geometry":{"type":"Point","coordinates":[-90.76,29.18]}},{"type":"Feature","properties":{"v":1056.0,"n":179},"geometry":{"type":"Point","coordinates":[-90.78,29.16]}},{"type":"Feature","properties":{"v":547.1,"n":22},"geometry":{"type":"Point","coordinates":[-90.76,29.16]}},{"type":"Feature","properties":{"v":801.0,"n":55},"geometry":{"type":"Point","coordinates":[-90.8,29.14]}},{"type":"Feature","properties":{"v":1277.3,"n":14},"geometry":{"type":"Point","coordinates":[-90.78,29.14]}},{"type":"Feature","properties":{"v":563.5,"n":384},"geometry":{"type":"Point","coordinates":[-90.76,29.14]}},{"type":"Feature","properties":{"v":1311.5,"n":20},"geometry":{"type":"Point","coordinates":[-90.8,29.12]}},{"type":"Feature","properties":{"v":300.1,"n":25},"geometry":{"type":"Point","coordinates":[-90.84,29.1]}},{"type":"Feature","properties":{"v":185.2,"n":45},"geometry":{"type":"Point","coordinates":[-90.82,29.12]}},{"type":"Feature","properties":{"v":474.2,"n":137},"geometry":{"type":"Point","coordinates":[-90.84,29.12]}},{"type":"Feature","properties":{"v":903.5,"n":37},"geometry":{"type":"Point","coordinates":[-90.86,29.12]}},{"type":"Feature","properties":{"v":93.0,"n":2},"geometry":{"type":"Point","coordinates":[-90.88,29.12]}},{"type":"Feature","properties":{"v":0.0,"n":2},"geometry":{"type":"Point","coordinates":[-90.74,29.08]}},{"type":"Feature","properties":{"v":0.0,"n":3},"geometry":{"type":"Point","coordinates":[-90.74,29.1]}},{"type":"Feature","properties":{"v":0.0,"n":4},"geometry":{"type":"Point","coordinates":[-90.72,29.1]}},{"type":"Feature","properties":{"v":0.0,"n":1},"geometry":{"type":"Point","coordinates":[-90.7,29.12]}},{"type":"Feature","properties":{"v":187.1,"n":25},"geometry":{"type":"Point","coordinates":[-90.28,29.24]}},{"type":"Feature","properties":{"v":365.0,"n":1},"geometry":{"type":"Point","coordinates":[-89.56,29.24]}},{"type":"Feature","properties":{"v":199.3,"n":3},"geometry":{"type":"Point","coordinates":[-89.54,29.24]}},{"type":"Feature","properties":{"v":133.0,"n":127},"geometry":{"type":"Point","coordinates":[-89.52,29.24]}},{"type":"Feature","properties":{"v":411.0,"n":4},"geometry":{"type":"Point","coordinates":[-89.46,29.22]}},{"type":"Feature","properties":{"v":372.0,"n":8},"geometry":{"type":"Point","coordinates":[-89.5,29.22]}},{"type":"Feature","properties":{"v":304.0,"n":43},"geometry":{"type":"Point","coordinates":[-89.5,29.24]}},{"type":"Feature","properties":{"v":389.5,"n":2},"geometry":{"type":"Point","coordinates":[-89.48,29.24]}},{"type":"Feature","properties":{"v":0.0,"n":1},"geometry":{"type":"Point","coordinates":[-89.48,29.26]}},{"type":"Feature","properties":{"v":191.9,"n":20},"geometry":{"type":"Point","coordinates":[-89.5,29.26]}},{"type":"Feature","properties":{"v":160.7,"n":20},"geometry":{"type":"Point","coordinates":[-89.5,29.28]}},{"type":"Feature","properties":{"v":0.0,"n":1},"geometry":{"type":"Point","coordinates":[-89.48,29.28]}},{"type":"Feature","properties":{"v":155.2,"n":55},"geometry":{"type":"Point","coordinates":[-89.5,29.3]}},{"type":"Feature","properties":{"v":0.0,"n":1},"geometry":{"type":"Point","coordinates":[-89.48,29.3]}},{"type":"Feature","properties":{"v":33.7,"n":7},"geometry":{"type":"Point","coordinates":[-89.5,29.32]}},{"type":"Feature","properties":{"v":176.4,"n":11},"geometry":{"type":"Point","coordinates":[-89.72,29.48]}},{"type":"Feature","properties":{"v":229.9,"n":16},"geometry":{"type":"Point","coordinates":[-89.74,29.48]}},{"type":"Feature","properties":{"v":91.6,"n":10},"geometry":{"type":"Point","coordinates":[-89.7,29.48]}},{"type":"Feature","properties":{"v":606.9,"n":62},"geometry":{"type":"Point","coordinates":[-89.7,29.46]}},{"type":"Feature","properties":{"v":608.8,"n":15},"geometry":{"type":"Point","coordinates":[-89.74,29.46]}},{"type":"Feature","properties":{"v":944.3,"n":62},"geometry":{"type":"Point","coordinates":[-89.72,29.46]}},{"type":"Feature","properties":{"v":181.1,"n":19},"geometry":{"type":"Point","coordinates":[-89.74,29.44]}},{"type":"Feature","properties":{"v":459.4,"n":70},"geometry":{"type":"Point","coordinates":[-89.72,29.44]}},{"type":"Feature","properties":{"v":757.5,"n":33},"geometry":{"type":"Point","coordinates":[-89.7,29.44]}},{"type":"Feature","properties":{"v":295.1,"n":30},"geometry":{"type":"Point","coordinates":[-89.68,29.44]}},{"type":"Feature","properties":{"v":456.7,"n":10},"geometry":{"type":"Point","coordinates":[-89.66,29.44]}},{"type":"Feature","properties":{"v":90.7,"n":45},"geometry":{"type":"Point","coordinates":[-89.68,29.46]}},{"type":"Feature","properties":{"v":472.4,"n":69},"geometry":{"type":"Point","coordinates":[-89.66,29.42]}},{"type":"Feature","properties":{"v":769.4,"n":123},"geometry":{"type":"Point","coordinates":[-89.68,29.42]}},{"type":"Feature","properties":{"v":1097.6,"n":68},"geometry":{"type":"Point","coordinates":[-89.72,29.42]}},{"type":"Feature","properties":{"v":209.6,"n":40},"geometry":{"type":"Point","coordinates":[-89.74,29.42]}},{"type":"Feature","properties":{"v":854.9,"n":40},"geometry":{"type":"Point","coordinates":[-89.7,29.42]}},{"type":"Feature","properties":{"v":299.3,"n":60},"geometry":{"type":"Point","coordinates":[-89.7,29.4]}},{"type":"Feature","properties":{"v":238.9,"n":59},"geometry":{"type":"Point","coordinates":[-89.72,29.4]}},{"type":"Feature","properties":{"v":191.0,"n":47},"geometry":{"type":"Point","coordinates":[-89.72,29.38]}},{"type":"Feature","properties":{"v":378.2,"n":64},"geometry":{"type":"Point","coordinates":[-89.7,29.38]}},{"type":"Feature","properties":{"v":709.2,"n":120},"geometry":{"type":"Point","coordinates":[-89.68,29.38]}},{"type":"Feature","properties":{"v":433.2,"n":212},"geometry":{"type":"Point","coordinates":[-89.66,29.38]}},{"type":"Feature","properties":{"v":450.8,"n":73},"geometry":{"type":"Point","coordinates":[-89.68,29.4]}},{"type":"Feature","properties":{"v":312.4,"n":45},"geometry":{"type":"Point","coordinates":[-89.66,29.4]}},{"type":"Feature","properties":{"v":556.8,"n":100},"geometry":{"type":"Point","coordinates":[-89.64,29.4]}},{"type":"Feature","properties":{"v":597.3,"n":195},"geometry":{"type":"Point","coordinates":[-89.64,29.38]}},{"type":"Feature","properties":{"v":733.8,"n":183},"geometry":{"type":"Point","coordinates":[-89.62,29.38]}},{"type":"Feature","properties":{"v":379.8,"n":20},"geometry":{"type":"Point","coordinates":[-89.6,29.38]}},{"type":"Feature","properties":{"v":483.5,"n":68},"geometry":{"type":"Point","coordinates":[-89.62,29.4]}},{"type":"Feature","properties":{"v":263.3,"n":15},"geometry":{"type":"Point","coordinates":[-89.62,29.42]}},{"type":"Feature","properties":{"v":118.7,"n":56},"geometry":{"type":"Point","coordinates":[-89.56,29.36]}},{"type":"Feature","properties":{"v":229.0,"n":2},"geometry":{"type":"Point","coordinates":[-89.54,29.36]}},{"type":"Feature","properties":{"v":165.3,"n":45},"geometry":{"type":"Point","coordinates":[-89.58,29.36]}},{"type":"Feature","properties":{"v":396.1,"n":117},"geometry":{"type":"Point","coordinates":[-89.62,29.36]}},{"type":"Feature","properties":{"v":640.2,"n":113},"geometry":{"type":"Point","coordinates":[-89.6,29.36]}},{"type":"Feature","properties":{"v":501.5,"n":132},"geometry":{"type":"Point","coordinates":[-89.58,29.34]}},{"type":"Feature","properties":{"v":379.2,"n":144},"geometry":{"type":"Point","coordinates":[-89.6,29.34]}},{"type":"Feature","properties":{"v":194.2,"n":73},"geometry":{"type":"Point","coordinates":[-89.62,29.34]}},{"type":"Feature","properties":{"v":258.3,"n":54},"geometry":{"type":"Point","coordinates":[-89.62,29.32]}},{"type":"Feature","properties":{"v":372.8,"n":121},"geometry":{"type":"Point","coordinates":[-89.6,29.32]}},{"type":"Feature","properties":{"v":370.0,"n":243},"geometry":{"type":"Point","coordinates":[-89.58,29.32]}},{"type":"Feature","properties":{"v":297.5,"n":157},"geometry":{"type":"Point","coordinates":[-89.56,29.32]}},{"type":"Feature","properties":{"v":219.5,"n":45},"geometry":{"type":"Point","coordinates":[-89.54,29.32]}},{"type":"Feature","properties":{"v":359.9,"n":102},"geometry":{"type":"Point","coordinates":[-89.56,29.34]}},{"type":"Feature","properties":{"v":161.7,"n":112},"geometry":{"type":"Point","coordinates":[-89.54,29.34]}},{"type":"Feature","properties":{"v":417.1,"n":7},"geometry":{"type":"Point","coordinates":[-89.52,29.34]}},{"type":"Feature","properties":{"v":74.8,"n":55},"geometry":{"type":"Point","coordinates":[-89.52,29.32]}},{"type":"Feature","properties":{"v":188.0,"n":100},"geometry":{"type":"Point","coordinates":[-89.52,29.3]}},{"type":"Feature","properties":{"v":294.9,"n":238},"geometry":{"type":"Point","coordinates":[-89.56,29.3]}},{"type":"Feature","properties":{"v":209.9,"n":53},"geometry":{"type":"Point","coordinates":[-89.54,29.3]}},{"type":"Feature","properties":{"v":257.5,"n":91},"geometry":{"type":"Point","coordinates":[-89.52,29.28]}},{"type":"Feature","properties":{"v":135.9,"n":133},"geometry":{"type":"Point","coordinates":[-89.52,29.26]}},{"type":"Feature","properties":{"v":335.8,"n":122},"geometry":{"type":"Point","coordinates":[-89.54,29.26]}},{"type":"Feature","properties":{"v":263.1,"n":50},"geometry":{"type":"Point","coordinates":[-89.56,29.26]}},{"type":"Feature","properties":{"v":393.4,"n":118},"geometry":{"type":"Point","coordinates":[-89.54,29.28]}},{"type":"Feature","properties":{"v":292.3,"n":227},"geometry":{"type":"Point","coordinates":[-89.56,29.28]}},{"type":"Feature","properties":{"v":66.5,"n":90},"geometry":{"type":"Point","coordinates":[-89.58,29.28]}},{"type":"Feature","properties":{"v":81.1,"n":56},"geometry":{"type":"Point","coordinates":[-89.58,29.26]}},{"type":"Feature","properties":{"v":32.1,"n":8},"geometry":{"type":"Point","coordinates":[-89.6,29.26]}},{"type":"Feature","properties":{"v":13.9,"n":12},"geometry":{"type":"Point","coordinates":[-89.6,29.28]}},{"type":"Feature","properties":{"v":186.3,"n":129},"geometry":{"type":"Point","coordinates":[-89.58,29.3]}},{"type":"Feature","properties":{"v":225.0,"n":36},"geometry":{"type":"Point","coordinates":[-89.6,29.3]}},{"type":"Feature","properties":{"v":3.3,"n":6},"geometry":{"type":"Point","coordinates":[-89.64,29.3]}},{"type":"Feature","properties":{"v":2812.2,"n":6},"geometry":{"type":"Point","coordinates":[-89.74,29.32]}},{"type":"Feature","properties":{"v":14.4,"n":10},"geometry":{"type":"Point","coordinates":[-89.74,29.34]}},{"type":"Feature","properties":{"v":458.8,"n":37},"geometry":{"type":"Point","coordinates":[-89.72,29.34]}},{"type":"Feature","properties":{"v":412.5,"n":49},"geometry":{"type":"Point","coordinates":[-89.7,29.34]}},{"type":"Feature","properties":{"v":22.3,"n":7},"geometry":{"type":"Point","coordinates":[-89.68,29.32]}},{"type":"Feature","properties":{"v":72.8,"n":5},"geometry":{"type":"Point","coordinates":[-89.64,29.32]}},{"type":"Feature","properties":{"v":376.4,"n":49},"geometry":{"type":"Point","coordinates":[-89.64,29.34]}},{"type":"Feature","properties":{"v":41.5,"n":6},"geometry":{"type":"Point","coordinates":[-89.68,29.34]}},{"type":"Feature","properties":{"v":445.7,"n":123},"geometry":{"type":"Point","coordinates":[-89.64,29.36]}},{"type":"Feature","properties":{"v":542.6,"n":128},"geometry":{"type":"Point","coordinates":[-89.66,29.36]}},{"type":"Feature","properties":{"v":511.9,"n":157},"geometry":{"type":"Point","coordinates":[-89.68,29.36]}},{"type":"Feature","properties":{"v":312.5,"n":137},"geometry":{"type":"Point","coordinates":[-89.7,29.36]}},{"type":"Feature","properties":{"v":39.0,"n":30},"geometry":{"type":"Point","coordinates":[-89.74,29.36]}},{"type":"Feature","properties":{"v":405.9,"n":85},"geometry":{"type":"Point","coordinates":[-89.72,29.36]}},{"type":"Feature","properties":{"v":2514.5,"n":4},"geometry":{"type":"Point","coordinates":[-89.76,29.32]}},{"type":"Feature","properties":{"v":0.0,"n":2},"geometry":{"type":"Point","coordinates":[-89.96,29.34]}},{"type":"Feature","properties":{"v":0.0,"n":2},"geometry":{"type":"Point","coordinates":[-89.96,29.32]}},{"type":"Feature","properties":{"v":0.0,"n":12},"geometry":{"type":"Point","coordinates":[-90.0,29.38]}},{"type":"Feature","properties":{"v":98.4,"n":20},"geometry":{"type":"Point","coordinates":[-90.0,29.4]}},{"type":"Feature","properties":{"v":58.9,"n":12},"geometry":{"type":"Point","coordinates":[-89.98,29.42]}},{"type":"Feature","properties":{"v":343.3,"n":69},"geometry":{"type":"Point","coordinates":[-90.0,29.42]}},{"type":"Feature","properties":{"v":0.0,"n":3},"geometry":{"type":"Point","coordinates":[-89.82,29.4]}},{"type":"Feature","properties":{"v":521.8,"n":54},"geometry":{"type":"Point","coordinates":[-89.76,29.4]}},{"type":"Feature","properties":{"v":1126.7,"n":6},"geometry":{"type":"Point","coordinates":[-89.78,29.4]}},{"type":"Feature","properties":{"v":375.3,"n":12},"geometry":{"type":"Point","coordinates":[-89.8,29.42]}},{"type":"Feature","properties":{"v":1491.3,"n":11},"geometry":{"type":"Point","coordinates":[-89.76,29.42]}},{"type":"Feature","properties":{"v":66.6,"n":37},"geometry":{"type":"Point","coordinates":[-89.78,29.42]}},{"type":"Feature","properties":{"v":721.2,"n":14},"geometry":{"type":"Point","coordinates":[-89.82,29.42]}},{"type":"Feature","properties":{"v":0.0,"n":4},"geometry":{"type":"Point","coordinates":[-89.84,29.46]}},{"type":"Feature","properties":{"v":147.9,"n":37},"geometry":{"type":"Point","coordinates":[-89.82,29.46]}},{"type":"Feature","properties":{"v":197.8,"n":46},"geometry":{"type":"Point","coordinates":[-89.78,29.46]}},{"type":"Feature","properties":{"v":180.3,"n":11},"geometry":{"type":"Point","coordinates":[-89.76,29.46]}},{"type":"Feature","properties":{"v":43.0,"n":6},"geometry":{"type":"Point","coordinates":[-89.8,29.46]}},{"type":"Feature","properties":{"v":377.3,"n":77},"geometry":{"type":"Point","coordinates":[-89.76,29.48]}},{"type":"Feature","properties":{"v":592.0,"n":24},"geometry":{"type":"Point","coordinates":[-89.78,29.48]}},{"type":"Feature","properties":{"v":26.3,"n":6},"geometry":{"type":"Point","coordinates":[-89.82,29.48]}},{"type":"Feature","properties":{"v":64.8,"n":9},"geometry":{"type":"Point","coordinates":[-89.84,29.48]}},{"type":"Feature","properties":{"v":51.8,"n":17},"geometry":{"type":"Point","coordinates":[-89.86,29.48]}},{"type":"Feature","properties":{"v":254.7,"n":23},"geometry":{"type":"Point","coordinates":[-89.92,29.48]}},{"type":"Feature","properties":{"v":156.8,"n":6},"geometry":{"type":"Point","coordinates":[-89.9,29.48]}},{"type":"Feature","properties":{"v":495.3,"n":21},"geometry":{"type":"Point","coordinates":[-89.9,29.46]}},{"type":"Feature","properties":{"v":10.7,"n":3},"geometry":{"type":"Point","coordinates":[-89.9,29.44]}},{"type":"Feature","properties":{"v":96.0,"n":7},"geometry":{"type":"Point","coordinates":[-89.92,29.44]}},{"type":"Feature","properties":{"v":354.9,"n":90},"geometry":{"type":"Point","coordinates":[-89.92,29.46]}},{"type":"Feature","properties":{"v":422.7,"n":3},"geometry":{"type":"Point","coordinates":[-89.96,29.46]}},{"type":"Feature","properties":{"v":78.0,"n":4},"geometry":{"type":"Point","coordinates":[-89.94,29.46]}},{"type":"Feature","properties":{"v":664.3,"n":32},"geometry":{"type":"Point","coordinates":[-89.94,29.44]}},{"type":"Feature","properties":{"v":813.6,"n":21},"geometry":{"type":"Point","coordinates":[-89.96,29.44]}},{"type":"Feature","properties":{"v":1002.1,"n":113},"geometry":{"type":"Point","coordinates":[-89.98,29.44]}},{"type":"Feature","properties":{"v":622.9,"n":29},"geometry":{"type":"Point","coordinates":[-90.0,29.46]}},{"type":"Feature","properties":{"v":585.5,"n":50},"geometry":{"type":"Point","coordinates":[-89.98,29.46]}},{"type":"Feature","properties":{"v":447.5,"n":55},"geometry":{"type":"Point","coordinates":[-90.0,29.48]}},{"type":"Feature","properties":{"v":884.0,"n":23},"geometry":{"type":"Point","coordinates":[-89.98,29.48]}},{"type":"Feature","properties":{"v":761.3,"n":3},"geometry":{"type":"Point","coordinates":[-89.94,29.48]}},{"type":"Feature","properties":{"v":869.5,"n":15},"geometry":{"type":"Point","coordinates":[-89.96,29.48]}},{"type":"Feature","properties":{"v":72.0,"n":3},"geometry":{"type":"Point","coordinates":[-89.92,29.5]}},{"type":"Feature","properties":{"v":1053.3,"n":29},"geometry":{"type":"Point","coordinates":[-89.9,29.5]}},{"type":"Feature","properties":{"v":37.3,"n":3},"geometry":{"type":"Point","coordinates":[-89.88,29.5]}},{"type":"Feature","properties":{"v":259.1,"n":29},"geometry":{"type":"Point","coordinates":[-89.9,29.52]}},{"type":"Feature","properties":{"v":4.3,"n":3},"geometry":{"type":"Point","coordinates":[-89.84,29.5]}},{"type":"Feature","properties":{"v":47.6,"n":9},"geometry":{"type":"Point","coordinates":[-89.8,29.5]}},{"type":"Feature","properties":{"v":271.0,"n":8},"geometry":{"type":"Point","coordinates":[-89.76,29.52]}},{"type":"Feature","properties":{"v":201.9,"n":9},"geometry":{"type":"Point","coordinates":[-89.78,29.5]}},{"type":"Feature","properties":{"v":300.1,"n":34},"geometry":{"type":"Point","coordinates":[-89.76,29.5]}},{"type":"Feature","properties":{"v":338.5,"n":4},"geometry":{"type":"Point","coordinates":[-89.74,29.5]}},{"type":"Feature","properties":{"v":0.0,"n":1},"geometry":{"type":"Point","coordinates":[-89.62,29.54]}},{"type":"Feature","properties":{"v":75.0,"n":2},"geometry":{"type":"Point","coordinates":[-89.66,29.6]}},{"type":"Feature","properties":{"v":0.0,"n":3},"geometry":{"type":"Point","coordinates":[-89.68,29.68]}},{"type":"Feature","properties":{"v":0.0,"n":3},"geometry":{"type":"Point","coordinates":[-89.56,29.66]}},{"type":"Feature","properties":{"v":372.0,"n":21},"geometry":{"type":"Point","coordinates":[-89.54,29.68]}},{"type":"Feature","properties":{"v":203.7,"n":24},"geometry":{"type":"Point","coordinates":[-89.56,29.68]}},{"type":"Feature","properties":{"v":46.5,"n":2},"geometry":{"type":"Point","coordinates":[-89.58,29.68]}},{"type":"Feature","properties":{"v":0.0,"n":2},"geometry":{"type":"Point","coordinates":[-89.58,29.66]}},{"type":"Feature","properties":{"v":0.0,"n":3},"geometry":{"type":"Point","coordinates":[-89.6,29.7]}},{"type":"Feature","properties":{"v":389.0,"n":14},"geometry":{"type":"Point","coordinates":[-89.58,29.7]}},{"type":"Feature","properties":{"v":370.8,"n":51},"geometry":{"type":"Point","coordinates":[-89.56,29.7]}},{"type":"Feature","properties":{"v":380.5,"n":102},"geometry":{"type":"Point","coordinates":[-89.54,29.7]}},{"type":"Feature","properties":{"v":5.5,"n":2},"geometry":{"type":"Point","coordinates":[-89.52,29.7]}},{"type":"Feature","properties":{"v":39.0,"n":21},"geometry":{"type":"Point","coordinates":[-89.56,29.72]}},{"type":"Feature","properties":{"v":0.0,"n":1},"geometry":{"type":"Point","coordinates":[-89.52,29.72]}},{"type":"Feature","properties":{"v":33.5,"n":2},"geometry":{"type":"Point","coordinates":[-89.52,29.74]}},{"type":"Feature","properties":{"v":421.4,"n":39},"geometry":{"type":"Point","coordinates":[-89.54,29.74]}},{"type":"Feature","properties":{"v":34.6,"n":7},"geometry":{"type":"Point","coordinates":[-89.56,29.74]}},{"type":"Feature","properties":{"v":96.5,"n":25},"geometry":{"type":"Point","coordinates":[-89.58,29.74]}},{"type":"Feature","properties":{"v":127.7,"n":7},"geometry":{"type":"Point","coordinates":[-89.58,29.72]}},{"type":"Feature","properties":{"v":43.6,"n":15},"geometry":{"type":"Point","coordinates":[-89.6,29.72]}},{"type":"Feature","properties":{"v":0.0,"n":2},"geometry":{"type":"Point","coordinates":[-89.62,29.72]}},{"type":"Feature","properties":{"v":2.0,"n":2},"geometry":{"type":"Point","coordinates":[-89.62,29.74]}},{"type":"Feature","properties":{"v":1.5,"n":8},"geometry":{"type":"Point","coordinates":[-89.6,29.74]}},{"type":"Feature","properties":{"v":0.0,"n":2},"geometry":{"type":"Point","coordinates":[-89.64,29.74]}},{"type":"Feature","properties":{"v":0.0,"n":1},"geometry":{"type":"Point","coordinates":[-89.66,29.74]}},{"type":"Feature","properties":{"v":0.0,"n":4},"geometry":{"type":"Point","coordinates":[-89.64,29.72]}},{"type":"Feature","properties":{"v":0.0,"n":1},"geometry":{"type":"Point","coordinates":[-89.64,29.7]}},{"type":"Feature","properties":{"v":0.0,"n":1},"geometry":{"type":"Point","coordinates":[-89.66,29.7]}},{"type":"Feature","properties":{"v":0.0,"n":1},"geometry":{"type":"Point","coordinates":[-89.62,29.94]}},{"type":"Feature","properties":{"v":1226.0,"n":1},"geometry":{"type":"Point","coordinates":[-89.6,29.98]}},{"type":"Feature","properties":{"v":0.0,"n":1},"geometry":{"type":"Point","coordinates":[-89.62,29.92]}},{"type":"Feature","properties":{"v":155.5,"n":2},"geometry":{"type":"Point","coordinates":[-89.52,29.86]}},{"type":"Feature","properties":{"v":181.0,"n":4},"geometry":{"type":"Point","coordinates":[-89.54,29.86]}},{"type":"Feature","properties":{"v":1073.4,"n":8},"geometry":{"type":"Point","coordinates":[-89.52,29.84]}},{"type":"Feature","properties":{"v":445.2,"n":44},"geometry":{"type":"Point","coordinates":[-89.52,29.82]}},{"type":"Feature","properties":{"v":799.0,"n":2},"geometry":{"type":"Point","coordinates":[-89.54,29.82]}},{"type":"Feature","properties":{"v":261.0,"n":1},"geometry":{"type":"Point","coordinates":[-89.66,29.82]}},{"type":"Feature","properties":{"v":329.4,"n":5},"geometry":{"type":"Point","coordinates":[-89.54,29.8]}},{"type":"Feature","properties":{"v":660.6,"n":11},"geometry":{"type":"Point","coordinates":[-89.52,29.8]}},{"type":"Feature","properties":{"v":1043.3,"n":4},"geometry":{"type":"Point","coordinates":[-89.52,29.78]}},{"type":"Feature","properties":{"v":742.8,"n":9},"geometry":{"type":"Point","coordinates":[-89.5,29.76]}},{"type":"Feature","properties":{"v":259.1,"n":16},"geometry":{"type":"Point","coordinates":[-89.48,29.76]}},{"type":"Feature","properties":{"v":757.3,"n":76},"geometry":{"type":"Point","coordinates":[-89.44,29.76]}},{"type":"Feature","properties":{"v":354.7,"n":21},"geometry":{"type":"Point","coordinates":[-89.46,29.76]}},{"type":"Feature","properties":{"v":814.7,"n":27},"geometry":{"type":"Point","coordinates":[-89.44,29.78]}},{"type":"Feature","properties":{"v":264.8,"n":6},"geometry":{"type":"Point","coordinates":[-89.48,29.78]}},{"type":"Feature","properties":{"v":677.7,"n":16},"geometry":{"type":"Point","coordinates":[-89.5,29.78]}},{"type":"Feature","properties":{"v":850.0,"n":9},"geometry":{"type":"Point","coordinates":[-89.5,29.8]}},{"type":"Feature","properties":{"v":466.7,"n":29},"geometry":{"type":"Point","coordinates":[-89.48,29.8]}},{"type":"Feature","properties":{"v":1057.5,"n":131},"geometry":{"type":"Point","coordinates":[-89.46,29.8]}},{"type":"Feature","properties":{"v":1057.4,"n":297},"geometry":{"type":"Point","coordinates":[-89.44,29.8]}},{"type":"Feature","properties":{"v":532.4,"n":8},"geometry":{"type":"Point","coordinates":[-89.42,29.8]}},{"type":"Feature","properties":{"v":80.2,"n":6},"geometry":{"type":"Point","coordinates":[-89.4,29.8]}},{"type":"Feature","properties":{"v":506.4,"n":8},"geometry":{"type":"Point","coordinates":[-89.38,29.8]}},{"type":"Feature","properties":{"v":324.1,"n":7},"geometry":{"type":"Point","coordinates":[-89.42,29.78]}},{"type":"Feature","properties":{"v":1110.2,"n":46},"geometry":{"type":"Point","coordinates":[-89.42,29.76]}},{"type":"Feature","properties":{"v":1098.3,"n":11},"geometry":{"type":"Point","coordinates":[-89.36,29.82]}},{"type":"Feature","properties":{"v":751.4,"n":112},"geometry":{"type":"Point","coordinates":[-89.36,29.84]}},{"type":"Feature","properties":{"v":701.5,"n":82},"geometry":{"type":"Point","coordinates":[-89.34,29.84]}},{"type":"Feature","properties":{"v":1170.5,"n":40},"geometry":{"type":"Point","coordinates":[-89.32,29.84]}},{"type":"Feature","properties":{"v":724.4,"n":32},"geometry":{"type":"Point","coordinates":[-89.34,29.82]}},{"type":"Feature","properties":{"v":2034.2,"n":5},"geometry":{"type":"Point","coordinates":[-89.32,29.82]}},{"type":"Feature","properties":{"v":909.0,"n":2},"geometry":{"type":"Point","coordinates":[-89.28,29.84]}},{"type":"Feature","properties":{"v":603.5,"n":86},"geometry":{"type":"Point","coordinates":[-89.3,29.84]}},{"type":"Feature","properties":{"v":637.3,"n":9},"geometry":{"type":"Point","coordinates":[-89.28,29.86]}},{"type":"Feature","properties":{"v":699.9,"n":36},"geometry":{"type":"Point","coordinates":[-89.3,29.86]}},{"type":"Feature","properties":{"v":615.0,"n":14},"geometry":{"type":"Point","coordinates":[-89.34,29.86]}},{"type":"Feature","properties":{"v":864.2,"n":9},"geometry":{"type":"Point","coordinates":[-89.36,29.86]}},{"type":"Feature","properties":{"v":150.5,"n":2},"geometry":{"type":"Point","coordinates":[-89.38,29.86]}},{"type":"Feature","properties":{"v":813.8,"n":8},"geometry":{"type":"Point","coordinates":[-89.4,29.86]}},{"type":"Feature","properties":{"v":651.9,"n":18},"geometry":{"type":"Point","coordinates":[-89.42,29.86]}},{"type":"Feature","properties":{"v":1202.3,"n":41},"geometry":{"type":"Point","coordinates":[-89.38,29.84]}},{"type":"Feature","properties":{"v":767.7,"n":11},"geometry":{"type":"Point","coordinates":[-89.4,29.84]}},{"type":"Feature","properties":{"v":698.7,"n":67},"geometry":{"type":"Point","coordinates":[-89.38,29.82]}},{"type":"Feature","properties":{"v":497.7,"n":70},"geometry":{"type":"Point","coordinates":[-89.4,29.82]}},{"type":"Feature","properties":{"v":1475.9,"n":24},"geometry":{"type":"Point","coordinates":[-89.42,29.82]}},{"type":"Feature","properties":{"v":475.8,"n":16},"geometry":{"type":"Point","coordinates":[-89.42,29.84]}},{"type":"Feature","properties":{"v":454.0,"n":2},"geometry":{"type":"Point","coordinates":[-89.44,29.84]}},{"type":"Feature","properties":{"v":857.0,"n":2},"geometry":{"type":"Point","coordinates":[-89.46,29.84]}},{"type":"Feature","properties":{"v":642.4,"n":23},"geometry":{"type":"Point","coordinates":[-89.44,29.82]}},{"type":"Feature","properties":{"v":955.1,"n":59},"geometry":{"type":"Point","coordinates":[-89.46,29.82]}},{"type":"Feature","properties":{"v":990.7,"n":151},"geometry":{"type":"Point","coordinates":[-89.48,29.82]}},{"type":"Feature","properties":{"v":868.2,"n":121},"geometry":{"type":"Point","coordinates":[-89.5,29.82]}},{"type":"Feature","properties":{"v":1215.6,"n":15},"geometry":{"type":"Point","coordinates":[-89.48,29.84]}},{"type":"Feature","properties":{"v":1268.0,"n":4},"geometry":{"type":"Point","coordinates":[-89.5,29.84]}},{"type":"Feature","properties":{"v":74.5,"n":4},"geometry":{"type":"Point","coordinates":[-89.44,29.86]}},{"type":"Feature","properties":{"v":857.5,"n":4},"geometry":{"type":"Point","coordinates":[-89.48,29.86]}},{"type":"Feature","properties":{"v":895.0,"n":8},"geometry":{"type":"Point","coordinates":[-89.42,29.88]}},{"type":"Feature","properties":{"v":172.9,"n":27},"geometry":{"type":"Point","coordinates":[-89.38,29.88]}},{"type":"Feature","properties":{"v":589.3,"n":36},"geometry":{"type":"Point","coordinates":[-89.38,29.9]}},{"type":"Feature","properties":{"v":180.3,"n":3},"geometry":{"type":"Point","coordinates":[-89.4,29.9]}},{"type":"Feature","properties":{"v":727.8,"n":21},"geometry":{"type":"Point","coordinates":[-89.42,29.9]}},{"type":"Feature","properties":{"v":820.9,"n":7},"geometry":{"type":"Point","coordinates":[-89.42,29.92]}},{"type":"Feature","properties":{"v":454.4,"n":28},"geometry":{"type":"Point","coordinates":[-89.38,29.92]}},{"type":"Feature","properties":{"v":607.2,"n":26},"geometry":{"type":"Point","coordinates":[-89.4,29.92]}},{"type":"Feature","properties":{"v":13.8,"n":4},"geometry":{"type":"Point","coordinates":[-89.46,29.96]}},{"type":"Feature","properties":{"v":582.9,"n":24},"geometry":{"type":"Point","coordinates":[-89.44,29.98]}},{"type":"Feature","properties":{"v":713.0,"n":4},"geometry":{"type":"Point","coordinates":[-89.46,29.98]}},{"type":"Feature","properties":{"v":819.0,"n":10},"geometry":{"type":"Point","coordinates":[-89.42,29.98]}},{"type":"Feature","properties":{"v":152.4,"n":9},"geometry":{"type":"Point","coordinates":[-89.38,29.98]}},{"type":"Feature","properties":{"v":684.4,"n":14},"geometry":{"type":"Point","coordinates":[-89.4,29.98]}},{"type":"Feature","properties":{"v":509.0,"n":30},"geometry":{"type":"Point","coordinates":[-89.38,29.96]}},{"type":"Feature","properties":{"v":1220.4,"n":8},"geometry":{"type":"Point","coordinates":[-89.4,29.96]}},{"type":"Feature","properties":{"v":454.6,"n":5},"geometry":{"type":"Point","coordinates":[-89.4,29.94]}},{"type":"Feature","properties":{"v":1100.9,"n":17},"geometry":{"type":"Point","coordinates":[-89.38,29.94]}},{"type":"Feature","properties":{"v":1927.8,"n":53},"geometry":{"type":"Point","coordinates":[-89.36,29.94]}},{"type":"Feature","properties":{"v":425.0,"n":28},"geometry":{"type":"Point","coordinates":[-89.34,29.94]}},{"type":"Feature","properties":{"v":424.8,"n":6},"geometry":{"type":"Point","coordinates":[-89.32,29.94]}},{"type":"Feature","properties":{"v":670.2,"n":42},"geometry":{"type":"Point","coordinates":[-89.34,29.96]}},{"type":"Feature","properties":{"v":597.4,"n":25},"geometry":{"type":"Point","coordinates":[-89.32,29.96]}},{"type":"Feature","properties":{"v":461.9,"n":10},"geometry":{"type":"Point","coordinates":[-89.36,29.96]}},{"type":"Feature","properties":{"v":1574.5,"n":28},"geometry":{"type":"Point","coordinates":[-89.36,29.98]}},{"type":"Feature","properties":{"v":691.5,"n":157},"geometry":{"type":"Point","coordinates":[-89.32,29.98]}},{"type":"Feature","properties":{"v":643.7,"n":63},"geometry":{"type":"Point","coordinates":[-89.34,29.98]}},{"type":"Feature","properties":{"v":727.2,"n":52},"geometry":{"type":"Point","coordinates":[-89.3,29.98]}},{"type":"Feature","properties":{"v":467.2,"n":29},"geometry":{"type":"Point","coordinates":[-89.26,29.98]}},{"type":"Feature","properties":{"v":431.3,"n":32},"geometry":{"type":"Point","coordinates":[-89.28,29.98]}},{"type":"Feature","properties":{"v":674.2,"n":25},"geometry":{"type":"Point","coordinates":[-89.26,29.96]}},{"type":"Feature","properties":{"v":261.2,"n":18},"geometry":{"type":"Point","coordinates":[-89.28,29.96]}},{"type":"Feature","properties":{"v":824.3,"n":17},"geometry":{"type":"Point","coordinates":[-89.3,29.96]}},{"type":"Feature","properties":{"v":692.1,"n":40},"geometry":{"type":"Point","coordinates":[-89.3,29.94]}},{"type":"Feature","properties":{"v":784.2,"n":54},"geometry":{"type":"Point","coordinates":[-89.28,29.94]}},{"type":"Feature","properties":{"v":828.9,"n":26},"geometry":{"type":"Point","coordinates":[-89.26,29.94]}},{"type":"Feature","properties":{"v":951.2,"n":25},"geometry":{"type":"Point","coordinates":[-89.28,29.92]}},{"type":"Feature","properties":{"v":469.5,"n":19},"geometry":{"type":"Point","coordinates":[-89.3,29.92]}},{"type":"Feature","properties":{"v":812.5,"n":42},"geometry":{"type":"Point","coordinates":[-89.36,29.92]}},{"type":"Feature","properties":{"v":470.9,"n":71},"geometry":{"type":"Point","coordinates":[-89.34,29.92]}},{"type":"Feature","properties":{"v":757.2,"n":72},"geometry":{"type":"Point","coordinates":[-89.32,29.92]}},{"type":"Feature","properties":{"v":844.1,"n":126},"geometry":{"type":"Point","coordinates":[-89.32,29.9]}},{"type":"Feature","properties":{"v":649.7,"n":58},"geometry":{"type":"Point","coordinates":[-89.34,29.9]}},{"type":"Feature","properties":{"v":620.0,"n":30},"geometry":{"type":"Point","coordinates":[-89.36,29.9]}},{"type":"Feature","properties":{"v":541.7,"n":20},"geometry":{"type":"Point","coordinates":[-89.36,29.88]}},{"type":"Feature","properties":{"v":784.5,"n":23},"geometry":{"type":"Point","coordinates":[-89.34,29.88]}},{"type":"Feature","properties":{"v":579.4,"n":9},"geometry":{"type":"Point","coordinates":[-89.32,29.88]}},{"type":"Feature","properties":{"v":733.8,"n":12},"geometry":{"type":"Point","coordinates":[-89.3,29.88]}},{"type":"Feature","properties":{"v":963.9,"n":25},"geometry":{"type":"Point","coordinates":[-89.3,29.9]}},{"type":"Feature","properties":{"v":0.0,"n":1},"geometry":{"type":"Point","coordinates":[-89.24,29.92]}},{"type":"Feature","properties":{"v":763.6,"n":24},"geometry":{"type":"Point","coordinates":[-89.24,29.94]}},{"type":"Feature","properties":{"v":292.0,"n":4},"geometry":{"type":"Point","coordinates":[-89.22,29.96]}},{"type":"Feature","properties":{"v":463.0,"n":90},"geometry":{"type":"Point","coordinates":[-89.24,29.96]}},{"type":"Feature","properties":{"v":16.0,"n":4},"geometry":{"type":"Point","coordinates":[-89.22,29.98]}},{"type":"Feature","properties":{"v":480.9,"n":63},"geometry":{"type":"Point","coordinates":[-89.24,29.98]}},{"type":"Feature","properties":{"v":1386.3,"n":4},"geometry":{"type":"Point","coordinates":[-89.42,29.72]}},{"type":"Feature","properties":{"v":658.4,"n":31},"geometry":{"type":"Point","coordinates":[-89.42,29.74]}},{"type":"Feature","properties":{"v":946.5,"n":57},"geometry":{"type":"Point","coordinates":[-89.44,29.74]}},{"type":"Feature","properties":{"v":804.3,"n":32},"geometry":{"type":"Point","coordinates":[-89.46,29.74]}},{"type":"Feature","properties":{"v":1217.0,"n":1},"geometry":{"type":"Point","coordinates":[-89.48,29.74]}},{"type":"Feature","properties":{"v":380.6,"n":54},"geometry":{"type":"Point","coordinates":[-89.5,29.72]}},{"type":"Feature","properties":{"v":1207.8,"n":4},"geometry":{"type":"Point","coordinates":[-89.46,29.72]}},{"type":"Feature","properties":{"v":1856.6,"n":26},"geometry":{"type":"Point","coordinates":[-89.44,29.72]}},{"type":"Feature","properties":{"v":201.1,"n":16},"geometry":{"type":"Point","coordinates":[-89.46,29.7]}},{"type":"Feature","properties":{"v":1.3,"n":7},"geometry":{"type":"Point","coordinates":[-76.0,38.34]}},{"type":"Feature","properties":{"v":640.4,"n":15},"geometry":{"type":"Point","coordinates":[-76.0,38.32]}},{"type":"Feature","properties":{"v":867.0,"n":7},"geometry":{"type":"Point","coordinates":[-75.98,38.32]}},{"type":"Feature","properties":{"v":637.3,"n":18},"geometry":{"type":"Point","coordinates":[-75.92,38.32]}},{"type":"Feature","properties":{"v":242.2,"n":9},"geometry":{"type":"Point","coordinates":[-75.92,38.3]}},{"type":"Feature","properties":{"v":1103.3,"n":3},"geometry":{"type":"Point","coordinates":[-75.94,38.3]}},{"type":"Feature","properties":{"v":645.8,"n":17},"geometry":{"type":"Point","coordinates":[-75.94,38.28]}},{"type":"Feature","properties":{"v":1021.7,"n":35},"geometry":{"type":"Point","coordinates":[-75.94,38.26]}},{"type":"Feature","properties":{"v":170.2,"n":26},"geometry":{"type":"Point","coordinates":[-75.92,38.26]}},{"type":"Feature","properties":{"v":162.8,"n":26},"geometry":{"type":"Point","coordinates":[-75.92,38.28]}},{"type":"Feature","properties":{"v":72.3,"n":3},"geometry":{"type":"Point","coordinates":[-75.9,38.28]}},{"type":"Feature","properties":{"v":273.9,"n":7},"geometry":{"type":"Point","coordinates":[-75.82,38.26]}},{"type":"Feature","properties":{"v":256.3,"n":17},"geometry":{"type":"Point","coordinates":[-75.84,38.26]}},{"type":"Feature","properties":{"v":31.0,"n":2},"geometry":{"type":"Point","coordinates":[-75.86,38.2]}},{"type":"Feature","properties":{"v":263.4,"n":26},"geometry":{"type":"Point","coordinates":[-75.86,38.22]}},{"type":"Feature","properties":{"v":0.0,"n":2},"geometry":{"type":"Point","coordinates":[-75.84,38.22]}},{"type":"Feature","properties":{"v":54.0,"n":5},"geometry":{"type":"Point","coordinates":[-75.84,38.24]}},{"type":"Feature","properties":{"v":52.1,"n":21},"geometry":{"type":"Point","coordinates":[-75.86,38.24]}},{"type":"Feature","properties":{"v":72.0,"n":5},"geometry":{"type":"Point","coordinates":[-75.88,38.24]}},{"type":"Feature","properties":{"v":129.7,"n":6},"geometry":{"type":"Point","coordinates":[-75.88,38.22]}},{"type":"Feature","properties":{"v":152.6,"n":14},"geometry":{"type":"Point","coordinates":[-75.92,38.24]}},{"type":"Feature","properties":{"v":0.0,"n":2},"geometry":{"type":"Point","coordinates":[-75.94,38.24]}},{"type":"Feature","properties":{"v":501.1,"n":15},"geometry":{"type":"Point","coordinates":[-75.88,38.2]}},{"type":"Feature","properties":{"v":597.6,"n":16},"geometry":{"type":"Point","coordinates":[-75.96,38.16]}},{"type":"Feature","properties":{"v":208.3,"n":6},"geometry":{"type":"Point","coordinates":[-75.92,38.12]}},{"type":"Feature","properties":{"v":1380.0,"n":2},"geometry":{"type":"Point","coordinates":[-75.94,38.12]}},{"type":"Feature","properties":{"v":1680.6,"n":8},"geometry":{"type":"Point","coordinates":[-76.06,38.22]}},{"type":"Feature","properties":{"v":578.5,"n":6},"geometry":{"type":"Point","coordinates":[-76.08,38.24]}},{"type":"Feature","properties":{"v":238.5,"n":6},"geometry":{"type":"Point","coordinates":[-76.1,38.24]}},{"type":"Feature","properties":{"v":356.1,"n":15},"geometry":{"type":"Point","coordinates":[-76.02,38.32]}},{"type":"Feature","properties":{"v":829.4,"n":5},"geometry":{"type":"Point","coordinates":[-76.02,38.34]}},{"type":"Feature","properties":{"v":0.0,"n":3},"geometry":{"type":"Point","coordinates":[-76.02,38.58]}},{"type":"Feature","properties":{"v":0.0,"n":4},"geometry":{"type":"Point","coordinates":[-76.04,38.58]}},{"type":"Feature","properties":{"v":60.7,"n":6},"geometry":{"type":"Point","coordinates":[-76.14,38.6]}},{"type":"Feature","properties":{"v":196.0,"n":6},"geometry":{"type":"Point","coordinates":[-76.12,38.7]}},{"type":"Feature","properties":{"v":0.0,"n":2},"geometry":{"type":"Point","coordinates":[-76.12,38.72]}},{"type":"Feature","properties":{"v":0.0,"n":1},"geometry":{"type":"Point","coordinates":[-76.12,38.74]}},{"type":"Feature","properties":{"v":373.6,"n":14},"geometry":{"type":"Point","coordinates":[-76.14,38.74]}},{"type":"Feature","properties":{"v":39.0,"n":1},"geometry":{"type":"Point","coordinates":[-76.18,38.72]}},{"type":"Feature","properties":{"v":14.3,"n":9},"geometry":{"type":"Point","coordinates":[-76.14,38.72]}},{"type":"Feature","properties":{"v":205.7,"n":17},"geometry":{"type":"Point","coordinates":[-76.18,38.7]}},{"type":"Feature","properties":{"v":577.6,"n":9},"geometry":{"type":"Point","coordinates":[-76.22,38.72]}},{"type":"Feature","properties":{"v":498.2,"n":13},"geometry":{"type":"Point","coordinates":[-76.2,38.74]}},{"type":"Feature","properties":{"v":142.2,"n":5},"geometry":{"type":"Point","coordinates":[-76.28,38.74]}},{"type":"Feature","properties":{"v":378.3,"n":16},"geometry":{"type":"Point","coordinates":[-76.22,38.78]}},{"type":"Feature","properties":{"v":611.4,"n":8},"geometry":{"type":"Point","coordinates":[-76.24,38.78]}},{"type":"Feature","properties":{"v":113.6,"n":7},"geometry":{"type":"Point","coordinates":[-76.24,38.8]}}]}