{"type":"FeatureCollection","name":"lease_32024_boundary","features":[{"type":"Feature","properties":{"lease_number":"32024","location":"Adams Bay","county":"Plaquemines","state":"LA","acres":152},"geometry":{"type":"Polygon","coordinates":[[[-89.619053,29.375698],[-89.6165,29.376979],[-89.618521,29.379882],[-89.618526,29.37989],[-89.618526,29.37989],[-89.618526,29.37989],[-89.619301,29.38106],[-89.620194,29.382291],[-89.618999,29.382945],[-89.621355,29.385186],[-89.622592,29.385785],[-89.622306,29.38674],[-89.626466,29.385497],[-89.627297,29.385268],[-89.6266,29.382617],[-89.626492,29.380286],[-89.626645,29.379275],[-89.624445,29.380267],[-89.620979,29.377658],[-89.619053,29.375698]]]}}]}